{"type":"FeatureCollection","features":[{"id":"0","type":"Feature","properties":{"id":"existing_service_reservoir.1","ogc_fid":1,"name":"Pasiansi","r_referenc":"PA","capacity_m":45,"depth__m_":0,"elevation_":1198.5,"material":"RC","installdat":1971,"elife":100,"location":"Psiansi","x_coordina":489734.999912,"y_coordina":9726090.94541,"zone_":"E"},"geometry":{"type":"Point","coordinates":[32.90834817091048,-2.480878589875085,0.0]}},{"id":"1","type":"Feature","properties":{"id":"existing_service_reservoir.2","ogc_fid":2,"name":"Isamilo","r_referenc":"IS","capacity_m":227,"depth__m_":0,"elevation_":1208.0,"material":"M","installdat":1995,"elife":100,"location":"Isamilo","x_coordina":489424.28116,"y_coordina":9723142.26829,"zone_":"E"},"geometry":{"type":"Point","coordinates":[32.905551306005734,-2.5075556004937094,0.0]}},{"id":"2","type":"Feature","properties":{"id":"existing_service_reservoir.3","ogc_fid":3,"name":"Bugando_ST","r_referenc":"BU_ST","capacity_m":182,"depth__m_":0,"elevation_":1242.2,"material":"ST","installdat":1958,"elife":100,"location":"Bugando Hospital","x_coordina":489895.712968,"y_coordina":9720693.37766,"zone_":"A"},"geometry":{"type":"Point","coordinates":[32.9097904727806,-2.529711445207803,0.0]}},{"id":"3","type":"Feature","properties":{"id":"existing_service_reservoir.4","ogc_fid":4,"name":"Bugando_Rc","r_referenc":"BU_RC","capacity_m":227,"depth__m_":0,"elevation_":1241.2,"material":"RC","installdat":1986,"elife":100,"location":"Bugando Hospital","x_coordina":489884.58436,"y_coordina":9720676.12547,"zone_":"A"},"geometry":{"type":"Point","coordinates":[32.909690354757174,-2.5298675218758584,0.0]}},{"id":"4","type":"Feature","properties":{"id":"existing_service_reservoir.5","ogc_fid":5,"name":"Igoma","r_referenc":"IG","capacity_m":4545,"depth__m_":0,"elevation_":1290.0,"material":"RC","installdat":1970,"elife":100,"location":"Igoma","x_coordina":497691.254608,"y_coordina":9718346.86973,"zone_":"G"},"geometry":{"type":"Point","coordinates":[32.97991493129196,-2.5509437269824122,0.0]}},{"id":"5","type":"Feature","properties":{"id":"existing_service_reservoir.6","ogc_fid":6,"name":"Capri Point_Rd","r_referenc":"CP_RD","capacity_m":2273,"depth__m_":0,"elevation_":1202.5,"material":"RC","installdat":1970,"elife":100,"location":"Capri point","x_coordina":487683.253798,"y_coordina":9721133.56358,"zone_":"A"},"geometry":{"type":"Point","coordinates":[32.88988865390879,-2.5257274660215314,0.0]}},{"id":"6","type":"Feature","properties":{"id":"existing_service_reservoir.7","ogc_fid":7,"name":"Capri Point_Sq","r_referenc":"CP_SQ","capacity_m":1364,"depth__m_":0,"elevation_":1204.5,"material":"RC","installdat":1958,"elife":100,"location":"Capri Point","x_coordina":487657.270982,"y_coordina":9721120.82643,"zone_":"A"},"geometry":{"type":"Point","coordinates":[32.88965491696853,-2.525842681717983,0.0]}},{"id":"7","type":"Feature","properties":{"id":"existing_service_reservoir.8","ogc_fid":8,"name":"Nyegezi_JWTZ","r_referenc":"NJ","capacity_m":91,"depth__m_":0,"elevation_":1205.3,"material":"RC","installdat":1986,"elife":100,"location":"Jeshi la Wanainchi wa Tanzania","x_coordina":490495.208041,"y_coordina":9715198.13942,"zone_":"F"},"geometry":{"type":"Point","coordinates":[32.915179967480505,-2.5794281767754077,0.0]}},{"id":"8","type":"Feature","properties":{"id":"existing_service_reservoir.9","ogc_fid":9,"name":"Nyegezi_SAUTI","r_referenc":"NS","capacity_m":404,"depth__m_":0,"elevation_":0.0,"material":"ST","installdat":1984,"elife":100,"location":"Saint Augustine University","x_coordina":489369.78884,"y_coordina":9713231.60175,"zone_":"F"},"geometry":{"type":"Point","coordinates":[32.90505455597445,-2.5972190477781907,0.0]}},{"id":"9","type":"Feature","properties":{"id":"existing_service_reservoir.10","ogc_fid":10,"name":"Ibungilo","r_referenc":"IB","capacity_m":45,"depth__m_":0,"elevation_":0.0,"material":"M","installdat":2001,"elife":100,"location":"Ibungilo","x_coordina":488817.883751,"y_coordina":9725499.38941,"zone_":"E"},"geometry":{"type":"Point","coordinates":[32.900098164915796,-2.486229902877671,0.0]}},{"id":"10","type":"Feature","properties":{"id":"existing_service_reservoir.11","ogc_fid":11,"name":"Nyegezi  Tank","r_referenc":"NYE-NW","capacity_m":5000,"depth__m_":0,"elevation_":0.0,"material":"RCC","installdat":2007,"elife":0,"location":null,"x_coordina":491481.23681,"y_coordina":9715247.77107,"zone_":null},"geometry":{"type":"Point","coordinates":[32.92405015174974,-2.578979713036043,0.0]}},{"id":"11","type":"Feature","properties":{"id":"existing_service_reservoir.12","ogc_fid":12,"name":"Nyanshana  Tank","r_referenc":"NYA-NW","capacity_m":1300,"depth__m_":5,"elevation_":0.0,"material":"RCC","installdat":2007,"elife":100,"location":"NYANSHANA","x_coordina":491809.144618,"y_coordina":9721838.68816,"zone_":"E"},"geometry":{"type":"Point","coordinates":[32.927003313728314,-2.5193507031702542,0.0]}},{"id":"12","type":"Feature","properties":{"id":"existing_service_reservoir.13","ogc_fid":13,"name":"Kisesa Tank","r_referenc":"KI","capacity_m":10,"depth__m_":0,"elevation_":0.0,"material":"RCC","installdat":1972,"elife":0,"location":null,"x_coordina":504217.114742,"y_coordina":9719370.4975,"zone_":"H"},"geometry":{"type":"Point","coordinates":[33.03861900877065,-2.541682356188832,0.0]}},{"id":"13","type":"Feature","properties":{"id":"existing_service_reservoir.14","ogc_fid":14,"name":"Kitangiri Tank","r_referenc":"KT-NW","capacity_m":2500,"depth__m_":0,"elevation_":0.0,"material":"RCC","installdat":2007,"elife":0,"location":null,"x_coordina":487858.857735,"y_coordina":9724725.18029,"zone_":null},"geometry":{"type":"Point","coordinates":[32.89146478556733,-2.493174737568086,0.0]}},{"id":"14","type":"Feature","properties":{"id":"existing_service_reservoir.15","ogc_fid":15,"name":"Kawekamo Tank","r_referenc":"KA-NW","capacity_m":5000,"depth__m_":5,"elevation_":0.0,"material":"RCC","installdat":2007,"elife":100,"location":"Kawekamo","x_coordina":490268.097897,"y_coordina":9725585.6057,"zone_":"E"},"geometry":{"type":"Point","coordinates":[32.91314317437326,-2.4854508149953225,0.0]}}]}