{"type":"FeatureCollection","features":[{"id":"0","type":"Feature","properties":{"id":"mwanza_religious_facilities.1","ogc_fid":1,"fid":1,"osm_id":6793793610,"addr:street":null,"amenity":"place_of_worship","addr:subward":null,"name":"Kanisa","service_times":null,"addr:city":"Mwanza","addr:municipality":"Ilemela","religion":"christian","denomination":null,"addr:ward":"Buswelu"},"geometry":{"type":"Point","coordinates":[32.9673301,-2.4984272]}},{"id":"1","type":"Feature","properties":{"id":"mwanza_religious_facilities.2","ogc_fid":2,"fid":2,"osm_id":8602529019,"addr:street":"Kanyama","amenity":"place_of_worship","addr:subward":null,"name":"House of Christ","service_times":null,"addr:city":"Mwanza","addr:municipality":"Ilemela","religion":"christian","denomination":null,"addr:ward":"Buswelu"},"geometry":{"type":"Point","coordinates":[33.0188522,-2.5488517]}},{"id":"2","type":"Feature","properties":{"id":"mwanza_religious_facilities.3","ogc_fid":3,"fid":3,"osm_id":8520663796,"addr:street":"Nyambiti","amenity":"place_of_worship","addr:subward":"Nyambiti","name":null,"service_times":null,"addr:city":"Mwanza","addr:municipality":"Ilemela","religion":"muslim","denomination":"sunni","addr:ward":"Buzuruga"},"geometry":{"type":"Point","coordinates":[32.9300594,-2.5266584]}},{"id":"3","type":"Feature","properties":{"id":"mwanza_religious_facilities.4","ogc_fid":4,"fid":4,"osm_id":8520663758,"addr:street":"Nyambiti","amenity":"place_of_worship","addr:subward":"Nyambiti","name":"EAGT MBITI","service_times":null,"addr:city":"Mwanza","addr:municipality":"Ilemela","religion":"christian","denomination":"protestant","addr:ward":"Buzuruga"},"geometry":{"type":"Point","coordinates":[32.9301023,-2.5261868]}},{"id":"4","type":"Feature","properties":{"id":"mwanza_religious_facilities.5","ogc_fid":5,"fid":5,"osm_id":8520663849,"addr:street":null,"amenity":"place_of_worship","addr:subward":"Nyambiti","name":"Nyambiti Pentecost Church Rd","service_times":"Su 08:00-10:00","addr:city":"Mwanza","addr:municipality":"Ilemela","religion":"christian","denomination":"protestant","addr:ward":"Buzuruga"},"geometry":{"type":"Point","coordinates":[32.9316019,-2.5259638]}},{"id":"5","type":"Feature","properties":{"id":"mwanza_religious_facilities.6","ogc_fid":6,"fid":6,"osm_id":8520663943,"addr:street":null,"amenity":"place_of_worship","addr:subward":"Nyambiti","name":"EAGT","service_times":"Su 08:00-10:00","addr:city":"Mwanza","addr:municipality":"Ilemela","religion":"christian","denomination":"catholic","addr:ward":"Buzuruga"},"geometry":{"type":"Point","coordinates":[32.9327631,-2.5244719]}},{"id":"6","type":"Feature","properties":{"id":"mwanza_religious_facilities.7","ogc_fid":7,"fid":7,"osm_id":4404884194,"addr:street":null,"amenity":"place_of_worship","addr:subward":null,"name":"Buzuruga Roman Catholic Church","service_times":null,"addr:city":"Mwanza","addr:municipality":"Ilemela","religion":"christian","denomination":"roman_catholic","addr:ward":"Buzuruga"},"geometry":{"type":"Point","coordinates":[32.9329735,-2.5273779]}},{"id":"7","type":"Feature","properties":{"id":"mwanza_religious_facilities.8","ogc_fid":8,"fid":8,"osm_id":8520664190,"addr:street":null,"amenity":"place_of_worship","addr:subward":"Nyambiti","name":"Roman Catholic","service_times":"Su 08:00-10:00","addr:city":"Mwanza","addr:municipality":"Ilemela","religion":"christian","denomination":"catholic","addr:ward":"Buzuruga"},"geometry":{"type":"Point","coordinates":[32.9335341,-2.5234761]}},{"id":"8","type":"Feature","properties":{"id":"mwanza_religious_facilities.9","ogc_fid":9,"fid":9,"osm_id":8520664040,"addr:street":null,"amenity":"place_of_worship","addr:subward":"Ustawi","name":"EAGT","service_times":"Su 08:00-10:00","addr:city":"Mwanza","addr:municipality":"Ilemela","religion":"christian","denomination":"protestant","addr:ward":"Buzuruga"},"geometry":{"type":"Point","coordinates":[32.9345226,-2.5321462]}},{"id":"9","type":"Feature","properties":{"id":"mwanza_religious_facilities.10","ogc_fid":10,"fid":10,"osm_id":8520663680,"addr:street":null,"amenity":"place_of_worship","addr:subward":"Buzuruga Kusini","name":"Baraza Kuu la Waislam BAKWATA","service_times":"Fr 12:00-15:00","addr:city":"Mwanza","addr:municipality":"Ilemela","religion":"muslim","denomination":"sunni","addr:ward":"Buzuruga"},"geometry":{"type":"Point","coordinates":[32.9393447,-2.5332541]}},{"id":"10","type":"Feature","properties":{"id":"mwanza_religious_facilities.11","ogc_fid":11,"fid":11,"osm_id":8520663981,"addr:street":null,"amenity":"place_of_worship","addr:subward":"Buzuruga Mashariki","name":"Sevenry Day Adventist Church","service_times":"Sa 09:00-14:00","addr:city":"Mwanza","addr:municipality":"Ilemela","religion":"christian","denomination":"protestant","addr:ward":"Buzuruga"},"geometry":{"type":"Point","coordinates":[32.9411537,-2.5289113]}},{"id":"11","type":"Feature","properties":{"id":"mwanza_religious_facilities.12","ogc_fid":12,"fid":12,"osm_id":4403339892,"addr:street":null,"amenity":"place_of_worship","addr:subward":null,"name":"Buzuruga SDA Church","service_times":null,"addr:city":"Mwanza","addr:municipality":"Ilemela","religion":"christian","denomination":"seventh_day_adventist","addr:ward":"Buzuruga"},"geometry":{"type":"Point","coordinates":[32.9411624,-2.5296668]}},{"id":"12","type":"Feature","properties":{"id":"mwanza_religious_facilities.13","ogc_fid":13,"fid":13,"osm_id":8520664033,"addr:street":null,"amenity":"place_of_worship","addr:subward":"Buzuruga Mashariki","name":"Sevenry Day Adventist Church","service_times":null,"addr:city":"Mwanza","addr:municipality":"Ilemela","religion":"christian","denomination":"protestant","addr:ward":"Buzuruga"},"geometry":{"type":"Point","coordinates":[32.9413536,-2.5292093]}},{"id":"13","type":"Feature","properties":{"id":"mwanza_religious_facilities.14","ogc_fid":14,"fid":14,"osm_id":4404881794,"addr:street":null,"amenity":"place_of_worship","addr:subward":null,"name":"KKKT Church","service_times":null,"addr:city":"Mwanza","addr:municipality":"Ilemela","religion":"christian","denomination":null,"addr:ward":"Buzuruga"},"geometry":{"type":"Point","coordinates":[32.9371026,-2.5288983]}},{"id":"14","type":"Feature","properties":{"id":"mwanza_religious_facilities.15","ogc_fid":15,"fid":15,"osm_id":8559767422,"addr:street":null,"amenity":"place_of_worship","addr:subward":"Nyamanoro A","name":null,"service_times":null,"addr:city":"Mwanza","addr:municipality":"Ilemela","religion":"muslim","denomination":"sunni","addr:ward":"Nyamanoro"},"geometry":{"type":"Point","coordinates":[32.9048048,-2.4947064]}},{"id":"15","type":"Feature","properties":{"id":"mwanza_religious_facilities.16","ogc_fid":16,"fid":16,"osm_id":8559738722,"addr:street":null,"amenity":"place_of_worship","addr:subward":"Nyamanoro","name":"St. Paul Church","service_times":null,"addr:city":"Mwanza","addr:municipality":"Ilemela","religion":"christian","denomination":"protestant","addr:ward":"Nyamanoro"},"geometry":{"type":"Point","coordinates":[32.9042459,-2.5018129]}},{"id":"16","type":"Feature","properties":{"id":"mwanza_religious_facilities.17","ogc_fid":17,"fid":17,"osm_id":8559739794,"addr:street":"Mkudi","amenity":"place_of_worship","addr:subward":"Mkudi","name":"The Evangerist assembly of God","service_times":"Su 08:00-10:00","addr:city":"Mwanza","addr:municipality":"Ilemela","religion":"christian","denomination":"protestant","addr:ward":"Nyamanoro"},"geometry":{"type":"Point","coordinates":[32.9076147,-2.5003123]}},{"id":"17","type":"Feature","properties":{"id":"mwanza_religious_facilities.18","ogc_fid":18,"fid":18,"osm_id":8559741506,"addr:street":"Mkudi","amenity":"place_of_worship","addr:subward":"Mkudi","name":"Kanisa katoliki(Rc), Parokia ya Nyamanoro","service_times":"Su 08:00-10:00","addr:city":"Mwanza","addr:municipality":"Ilemela","religion":"christian","denomination":"catholic","addr:ward":"Nyamanoro"},"geometry":{"type":"Point","coordinates":[32.9086661,-2.4986616]}},{"id":"18","type":"Feature","properties":{"id":"mwanza_religious_facilities.19","ogc_fid":19,"fid":19,"osm_id":8559749977,"addr:street":null,"amenity":"place_of_worship","addr:subward":"Nyamanoro A","name":"St Paul","service_times":"We 17:00-20:00; Su 08:00-10:00","addr:city":"Mwanza","addr:municipality":"Ilemela","religion":"christian","denomination":"catholic","addr:ward":"Nyamanoro"},"geometry":{"type":"Point","coordinates":[32.9028082,-2.5021559]}},{"id":"19","type":"Feature","properties":{"id":"mwanza_religious_facilities.20","ogc_fid":20,"fid":20,"osm_id":4405821510,"addr:street":null,"amenity":"place_of_worship","addr:subward":null,"name":"SDA Church Kirumba","service_times":null,"addr:city":"Mwanza","addr:municipality":"Ilemela","religion":"christian","denomination":"seventh_day_adventist","addr:ward":"Kirumba"},"geometry":{"type":"Point","coordinates":[32.8959903,-2.4991062]}},{"id":"20","type":"Feature","properties":{"id":"mwanza_religious_facilities.21","ogc_fid":21,"fid":21,"osm_id":8570900588,"addr:street":null,"amenity":"place_of_worship","addr:subward":"Kirumba Kati","name":"Masjid Shamsiyat","service_times":"Mo-Fr 17:00-20:00","addr:city":"Mwanza","addr:municipality":"Ilemela","religion":"muslim","denomination":null,"addr:ward":"Kirumba"},"geometry":{"type":"Point","coordinates":[32.8978593,-2.5012336]}},{"id":"21","type":"Feature","properties":{"id":"mwanza_religious_facilities.22","ogc_fid":22,"fid":22,"osm_id":8570900680,"addr:street":null,"amenity":"place_of_worship","addr:subward":"Ibanda Juu","name":"Roman Catholic","service_times":"Su 08:00-10:00","addr:city":"Mwanza","addr:municipality":"Ilemela","religion":"christian","denomination":"catholic","addr:ward":"Kirumba"},"geometry":{"type":"Point","coordinates":[32.8887988,-2.4983205]}},{"id":"22","type":"Feature","properties":{"id":"mwanza_religious_facilities.23","ogc_fid":23,"fid":23,"osm_id":8570900766,"addr:street":null,"amenity":"place_of_worship","addr:subward":"Magomeni","name":"Masjid Hudaa","service_times":"Fr 12:00-15:00","addr:city":"Mwanza","addr:municipality":"Ilemela","religion":"muslim","denomination":"sunni","addr:ward":"Kirumba"},"geometry":{"type":"Point","coordinates":[32.8958559,-2.5042353]}},{"id":"23","type":"Feature","properties":{"id":"mwanza_religious_facilities.24","ogc_fid":24,"fid":24,"osm_id":8570900829,"addr:street":null,"amenity":"place_of_worship","addr:subward":"Kigoto","name":"A.I.C.T","service_times":"Su 08:00-10:00","addr:city":"Mwanza","addr:municipality":"Ilemela","religion":"christian","denomination":"catholic","addr:ward":"Kirumba"},"geometry":{"type":"Point","coordinates":[32.8858462,-2.5009232]}},{"id":"24","type":"Feature","properties":{"id":"mwanza_religious_facilities.25","ogc_fid":25,"fid":25,"osm_id":8570900921,"addr:street":null,"amenity":"place_of_worship","addr:subward":"Ibanda Kati","name":"KKKT- Ibanda Kati","service_times":"We 17:00-20:00; Su 08:00-10:00","addr:city":"Mwanza","addr:municipality":"Ilemela","religion":"christian","denomination":"protestant","addr:ward":"Kirumba"},"geometry":{"type":"Point","coordinates":[32.8893971,-2.4979971]}},{"id":"25","type":"Feature","properties":{"id":"mwanza_religious_facilities.26","ogc_fid":26,"fid":26,"osm_id":8570900931,"addr:street":null,"amenity":"place_of_worship","addr:subward":"Ngara","name":"Parokia ya Kirumba","service_times":"Su 08:00-10:00","addr:city":"Mwanza","addr:municipality":"Ilemela","religion":"christian","denomination":"catholic","addr:ward":"Kirumba"},"geometry":{"type":"Point","coordinates":[32.8964359,-2.499826]}},{"id":"26","type":"Feature","properties":{"id":"mwanza_religious_facilities.27","ogc_fid":27,"fid":27,"osm_id":8570900991,"addr:street":null,"amenity":"place_of_worship","addr:subward":"Mlimani","name":"Kanisa la Moravian","service_times":"Su 08:00-10:00","addr:city":"Mwanza","addr:municipality":"Ilemela","religion":"christian","denomination":"protestant","addr:ward":"Kirumba"},"geometry":{"type":"Point","coordinates":[32.8924479,-2.5058919]}},{"id":"27","type":"Feature","properties":{"id":"mwanza_religious_facilities.28","ogc_fid":28,"fid":28,"osm_id":8570901130,"addr:street":null,"amenity":"place_of_worship","addr:subward":"Kilimani","name":"Church of Mennonite Tanzania","service_times":"Su 08:00-10:00","addr:city":"Mwanza","addr:municipality":"Ilemela","religion":"christian","denomination":"catholic","addr:ward":"Kirumba"},"geometry":{"type":"Point","coordinates":[32.8937449,-2.5047582]}},{"id":"28","type":"Feature","properties":{"id":"mwanza_religious_facilities.29","ogc_fid":29,"fid":29,"osm_id":8570901168,"addr:street":"Gengeni","amenity":"place_of_worship","addr:subward":"Mlimani","name":"Jesus Restoration Center Church","service_times":"Su 08:00-10:00","addr:city":"Mwanza","addr:municipality":"Ilemela","religion":"christian","denomination":"protestant","addr:ward":"Kirumba"},"geometry":{"type":"Point","coordinates":[32.8936747,-2.5008849]}},{"id":"29","type":"Feature","properties":{"id":"mwanza_religious_facilities.30","ogc_fid":30,"fid":30,"osm_id":8570901177,"addr:street":null,"amenity":"place_of_worship","addr:subward":"Kirumba Kati","name":null,"service_times":"Fr 12:00-15:00","addr:city":"Mwanza","addr:municipality":"Ilemela","religion":"muslim","denomination":null,"addr:ward":"Kirumba"},"geometry":{"type":"Point","coordinates":[32.8999758,-2.5065505]}},{"id":"30","type":"Feature","properties":{"id":"mwanza_religious_facilities.31","ogc_fid":31,"fid":31,"osm_id":8570901240,"addr:street":null,"amenity":"place_of_worship","addr:subward":"Ngara","name":null,"service_times":"Su 08:00-10:00","addr:city":"Mwanza","addr:municipality":"Ilemela","religion":"christian","denomination":"protestant","addr:ward":"Kirumba"},"geometry":{"type":"Point","coordinates":[32.8938818,-2.5012127]}},{"id":"31","type":"Feature","properties":{"id":"mwanza_religious_facilities.32","ogc_fid":32,"fid":32,"osm_id":8570901249,"addr:street":"Bukoba","amenity":"place_of_worship","addr:subward":"Ibanda Juu","name":null,"service_times":null,"addr:city":"Mwanza","addr:municipality":"Ilemela","religion":"muslim","denomination":null,"addr:ward":"Kirumba"},"geometry":{"type":"Point","coordinates":[32.8891826,-2.4989403]}},{"id":"32","type":"Feature","properties":{"id":"mwanza_religious_facilities.33","ogc_fid":33,"fid":33,"osm_id":8571606019,"addr:street":null,"amenity":"place_of_worship","addr:subward":"Nela","name":null,"service_times":"Su 08:00-10:00","addr:city":"Mwanza","addr:municipality":"Ilemela","religion":"christian","denomination":"protestant","addr:ward":"Kirumba"},"geometry":{"type":"Point","coordinates":[32.9021424,-2.5045179]}},{"id":"33","type":"Feature","properties":{"id":"mwanza_religious_facilities.34","ogc_fid":34,"fid":34,"osm_id":8571608687,"addr:street":null,"amenity":"place_of_worship","addr:subward":"Nela","name":null,"service_times":"Su 08:00-10:00","addr:city":"Mwanza","addr:municipality":"Ilemela","religion":"christian","denomination":"protestant","addr:ward":"Kirumba"},"geometry":{"type":"Point","coordinates":[32.9018492,-2.5043924]}},{"id":"34","type":"Feature","properties":{"id":"mwanza_religious_facilities.35","ogc_fid":35,"fid":35,"osm_id":8571610754,"addr:street":null,"amenity":"place_of_worship","addr:subward":"Nela","name":null,"service_times":"Su 08:00-10:00","addr:city":"Mwanza","addr:municipality":"Ilemela","religion":"christian","denomination":"protestant","addr:ward":"Kirumba"},"geometry":{"type":"Point","coordinates":[32.9013491,-2.5053929]}},{"id":"35","type":"Feature","properties":{"id":"mwanza_religious_facilities.36","ogc_fid":36,"fid":36,"osm_id":8520399554,"addr:street":null,"amenity":"place_of_worship","addr:subward":"Jiwe Kuu","name":"Life Church","service_times":"Su 08:00-10:00","addr:city":"Mwanza","addr:municipality":"Ilemela","religion":"christian","denomination":"catholic","addr:ward":"Kitangiri"},"geometry":{"type":"Point","coordinates":[32.8948277,-2.4905172]}},{"id":"36","type":"Feature","properties":{"id":"mwanza_religious_facilities.37","ogc_fid":37,"fid":37,"osm_id":8520399570,"addr:street":null,"amenity":"place_of_worship","addr:subward":"Kaza Moyo","name":"TAG","service_times":"Su 08:00-10:00","addr:city":"Mwanza","addr:municipality":"Ilemela","religion":"christian","denomination":"protestant","addr:ward":"Kitangiri"},"geometry":{"type":"Point","coordinates":[32.89024,-2.4895218]}},{"id":"37","type":"Feature","properties":{"id":"mwanza_religious_facilities.38","ogc_fid":38,"fid":38,"osm_id":8520399507,"addr:street":"Mihama","amenity":"place_of_worship","addr:subward":"Mihama","name":null,"service_times":"Sa 09:00-14:00","addr:city":"Mwanza","addr:municipality":"Ilemela","religion":"christian","denomination":"catholic","addr:ward":"Kitangiri"},"geometry":{"type":"Point","coordinates":[32.8874445,-2.485349]}},{"id":"38","type":"Feature","properties":{"id":"mwanza_religious_facilities.39","ogc_fid":39,"fid":39,"osm_id":8520399486,"addr:street":null,"amenity":"place_of_worship","addr:subward":"Jiwe Kuu","name":"EAGT Church","service_times":"Su 08:00-10:00","addr:city":"Mwanza","addr:municipality":"Ilemela","religion":"christian","denomination":"catholic","addr:ward":"Kitangiri"},"geometry":{"type":"Point","coordinates":[32.890053,-2.4851406]}},{"id":"39","type":"Feature","properties":{"id":"mwanza_religious_facilities.40","ogc_fid":40,"fid":40,"osm_id":8520399555,"addr:street":null,"amenity":"place_of_worship","addr:subward":"Jiwe Kuu","name":"KKKT Usharika wa Upendo","service_times":"We 17:00-20:00; Su 08:00-10:00","addr:city":"Mwanza","addr:municipality":"Ilemela","religion":"christian","denomination":"orthodox","addr:ward":"Kitangiri"},"geometry":{"type":"Point","coordinates":[32.888642,-2.483872]}},{"id":"40","type":"Feature","properties":{"id":"mwanza_religious_facilities.41","ogc_fid":41,"fid":41,"osm_id":8520612006,"addr:street":"Mihama Road","amenity":"place_of_worship","addr:subward":"Mihama","name":"Kanisa Katoliki Kigango cha Mihama","service_times":"Su 08:00-10:00","addr:city":"Mwanza","addr:municipality":"Ilemela","religion":"christian","denomination":"catholic","addr:ward":"Kitangiri"},"geometry":{"type":"Point","coordinates":[32.882638,-2.4825622]}},{"id":"41","type":"Feature","properties":{"id":"mwanza_religious_facilities.42","ogc_fid":42,"fid":42,"osm_id":8559732162,"addr:street":null,"amenity":"place_of_worship","addr:subward":"Medical","name":"Mas-Jidul H'idaay - Kitangiri","service_times":"Mo-Fr 17:00-20:00","addr:city":"Mwanza","addr:municipality":"Ilemela","religion":"muslim","denomination":null,"addr:ward":"Kitangiri"},"geometry":{"type":"Point","coordinates":[32.8988728,-2.4908041]}},{"id":"42","type":"Feature","properties":{"id":"mwanza_religious_facilities.43","ogc_fid":43,"fid":43,"osm_id":8559735189,"addr:street":"Kitangiri B","amenity":"place_of_worship","addr:subward":"Kitangiri B","name":"The Free Pentecostal Church of Tanzania","service_times":"Mo-Fr 12:00-14:00","addr:city":"Mwanza","addr:municipality":"Ilemela","religion":"christian","denomination":"protestant","addr:ward":"Kitangiri"},"geometry":{"type":"Point","coordinates":[32.9005122,-2.4941384]}},{"id":"43","type":"Feature","properties":{"id":"mwanza_religious_facilities.44","ogc_fid":44,"fid":44,"osm_id":8570901255,"addr:street":null,"amenity":"place_of_worship","addr:subward":"Kitangiri Kati","name":null,"service_times":"Su 08:00-10:00","addr:city":"Mwanza","addr:municipality":"Ilemela","religion":"christian","denomination":"protestant","addr:ward":"Kitangiri"},"geometry":{"type":"Point","coordinates":[32.8977911,-2.4937485]}},{"id":"44","type":"Feature","properties":{"id":"mwanza_religious_facilities.45","ogc_fid":45,"fid":45,"osm_id":7901709885,"addr:street":"Kirumba","amenity":"place_of_worship","addr:subward":null,"name":"FPCT Kitangiri","service_times":null,"addr:city":"Mwanza","addr:municipality":"Ilemela","religion":"christian","denomination":null,"addr:ward":"Kitangiri"},"geometry":{"type":"Point","coordinates":[32.9004971,-2.4942464]}},{"id":"45","type":"Feature","properties":{"id":"mwanza_religious_facilities.46","ogc_fid":46,"fid":46,"osm_id":5412349221,"addr:street":null,"amenity":"place_of_worship","addr:subward":null,"name":null,"service_times":null,"addr:city":"Mwanza","addr:municipality":"Ilemela","religion":"christian","denomination":null,"addr:ward":"Pasiansi"},"geometry":{"type":"Point","coordinates":[32.903147,-2.4791141]}},{"id":"46","type":"Feature","properties":{"id":"mwanza_religious_facilities.47","ogc_fid":47,"fid":47,"osm_id":8520399504,"addr:street":null,"amenity":"place_of_worship","addr:subward":"Bwiru Mchangani","name":null,"service_times":"We 17:00-20:00; Su 08:00-10:00","addr:city":"Mwanza","addr:municipality":"Ilemela","religion":"muslim","denomination":null,"addr:ward":"Pasiansi"},"geometry":{"type":"Point","coordinates":[32.9012632,-2.4784461]}},{"id":"47","type":"Feature","properties":{"id":"mwanza_religious_facilities.48","ogc_fid":48,"fid":48,"osm_id":5453276795,"addr:street":null,"amenity":"place_of_worship","addr:subward":null,"name":"Winner Church","service_times":null,"addr:city":"Mwanza","addr:municipality":"Ilemela","religion":"christian","denomination":null,"addr:ward":"Pasiansi"},"geometry":{"type":"Point","coordinates":[32.9066007,-2.4781248]}},{"id":"48","type":"Feature","properties":{"id":"mwanza_religious_facilities.49","ogc_fid":49,"fid":49,"osm_id":8520399603,"addr:street":null,"amenity":"place_of_worship","addr:subward":"Bwiru Press","name":"KKKT","service_times":"Su 08:00-10:00","addr:city":"Mwanza","addr:municipality":"Ilemela","religion":"christian","denomination":"catholic","addr:ward":"Pasiansi"},"geometry":{"type":"Point","coordinates":[32.8972463,-2.4752498]}},{"id":"49","type":"Feature","properties":{"id":"mwanza_religious_facilities.50","ogc_fid":50,"fid":50,"osm_id":8520612014,"addr:street":null,"amenity":"place_of_worship","addr:subward":"Bwiru Press","name":"AICT Church","service_times":"Su 08:00-10:00","addr:city":"Mwanza","addr:municipality":"Ilemela","religion":"christian","denomination":"protestant","addr:ward":"Pasiansi"},"geometry":{"type":"Point","coordinates":[32.8957081,-2.4726028]}},{"id":"50","type":"Feature","properties":{"id":"mwanza_religious_facilities.51","ogc_fid":51,"fid":51,"osm_id":5232645021,"addr:street":null,"amenity":"place_of_worship","addr:subward":null,"name":"KKKT DMZV Bwiru","service_times":null,"addr:city":"Mwanza","addr:municipality":"Ilemela","religion":"christian","denomination":null,"addr:ward":"Pasiansi"},"geometry":{"type":"Point","coordinates":[32.8982229,-2.4724179]}},{"id":"51","type":"Feature","properties":{"id":"mwanza_religious_facilities.52","ogc_fid":52,"fid":52,"osm_id":8532270296,"addr:street":null,"amenity":"place_of_worship","addr:subward":"Iloganzala","name":"Pentecostal","service_times":"Su 08:00-10:00","addr:city":"Mwanza","addr:municipality":"Ilemela","religion":"christian","denomination":"protestant","addr:ward":"Pasiansi"},"geometry":{"type":"Point","coordinates":[32.91049,-2.4740086]}},{"id":"52","type":"Feature","properties":{"id":"mwanza_religious_facilities.53","ogc_fid":53,"fid":53,"osm_id":8532270378,"addr:street":null,"amenity":"place_of_worship","addr:subward":"Pasiasi Juu","name":"Gilgal Christian Ministries International","service_times":"We 17:00-20:00; Su 08:00-10:00","addr:city":"Mwanza","addr:municipality":"Ilemela","religion":"christian","denomination":"protestant","addr:ward":"Pasiansi"},"geometry":{"type":"Point","coordinates":[32.9043361,-2.4818007]}},{"id":"53","type":"Feature","properties":{"id":"mwanza_religious_facilities.54","ogc_fid":54,"fid":54,"osm_id":8520612011,"addr:street":null,"amenity":"place_of_worship","addr:subward":"Bwiru Press","name":"Kanisa Katoliki","service_times":"Su 08:00-10:00","addr:city":"Mwanza","addr:municipality":"Ilemela","religion":"christian","denomination":"catholic","addr:ward":"Pasiansi"},"geometry":{"type":"Point","coordinates":[32.8886032,-2.4754877]}},{"id":"54","type":"Feature","properties":{"id":"mwanza_religious_facilities.55","ogc_fid":55,"fid":55,"osm_id":5448390214,"addr:street":null,"amenity":"place_of_worship","addr:subward":null,"name":"SDA church","service_times":null,"addr:city":"Mwanza","addr:municipality":"Ilemela","religion":"christian","denomination":null,"addr:ward":"Kawekamo"},"geometry":{"type":"Point","coordinates":[32.9105622,-2.4772799]}},{"id":"55","type":"Feature","properties":{"id":"mwanza_religious_facilities.56","ogc_fid":56,"fid":56,"osm_id":8532270318,"addr:street":"pasiansi A mashariki","amenity":"place_of_worship","addr:subward":"pasiansi A mashariki","name":null,"service_times":"Su 08:00-10:00","addr:city":"Mwanza","addr:municipality":"Ilemela","religion":"christian","denomination":"protestant","addr:ward":"Kawekamo"},"geometry":{"type":"Point","coordinates":[32.9086876,-2.4825407]}},{"id":"56","type":"Feature","properties":{"id":"mwanza_religious_facilities.57","ogc_fid":57,"fid":57,"osm_id":8532270379,"addr:street":"Airport","amenity":"place_of_worship","addr:subward":"Pasiansi","name":"KKKT","service_times":"Su 08:00-10:00","addr:city":"Mwanza","addr:municipality":"Ilemela","religion":"christian","denomination":"protestant","addr:ward":"Kawekamo"},"geometry":{"type":"Point","coordinates":[32.9109836,-2.4766454]}},{"id":"57","type":"Feature","properties":{"id":"mwanza_religious_facilities.58","ogc_fid":58,"fid":58,"osm_id":8532270430,"addr:street":"pasiansi A mashariki","amenity":"place_of_worship","addr:subward":"pasiansi A mashariki","name":"Pasiansi Pefa Church","service_times":"Su 08:00-10:00","addr:city":"Mwanza","addr:municipality":"Ilemela","religion":"christian","denomination":"protestant","addr:ward":"Kawekamo"},"geometry":{"type":"Point","coordinates":[32.9112904,-2.475351]}},{"id":"58","type":"Feature","properties":{"id":"mwanza_religious_facilities.59","ogc_fid":59,"fid":59,"osm_id":8532270482,"addr:street":"Mashariki A","amenity":"place_of_worship","addr:subward":"Mashariki A","name":"AIC Mashariki A","service_times":"Su 08:00-10:00","addr:city":"Mwanza","addr:municipality":"Ilemela","religion":"christian","denomination":"protestant","addr:ward":"Kawekamo"},"geometry":{"type":"Point","coordinates":[32.9117775,-2.4772028]}},{"id":"59","type":"Feature","properties":{"id":"mwanza_religious_facilities.60","ogc_fid":60,"fid":60,"osm_id":8532270488,"addr:street":"pasiansi A mashariki","amenity":"place_of_worship","addr:subward":"pasiansi A mashariki","name":"Door Christian Fellowship Church","service_times":"Su 08:00-10:00","addr:city":"Mwanza","addr:municipality":"Ilemela","religion":"christian","denomination":"orthodox","addr:ward":"Kawekamo"},"geometry":{"type":"Point","coordinates":[32.9117346,-2.473151]}},{"id":"60","type":"Feature","properties":{"id":"mwanza_religious_facilities.61","ogc_fid":61,"fid":61,"osm_id":8532270337,"addr:street":"Airport","amenity":"place_of_worship","addr:subward":"Pasiansi","name":"SDA","service_times":"Sa 09:00-14:00","addr:city":"Mwanza","addr:municipality":"Ilemela","religion":"christian","denomination":"protestant","addr:ward":"Kawekamo"},"geometry":{"type":"Point","coordinates":[32.9105759,-2.4772671]}},{"id":"61","type":"Feature","properties":{"id":"mwanza_religious_facilities.62","ogc_fid":62,"fid":62,"osm_id":8704625217,"addr:street":"Rumala","amenity":"place_of_worship","addr:subward":null,"name":"Pasiansi parish","service_times":null,"addr:city":"Mwanza","addr:municipality":"Ilemela","religion":"christian","denomination":null,"addr:ward":"Kawekamo"},"geometry":{"type":"Point","coordinates":[32.912871,-2.4783122]}},{"id":"62","type":"Feature","properties":{"id":"mwanza_religious_facilities.63","ogc_fid":63,"fid":63,"osm_id":5451999607,"addr:street":null,"amenity":"place_of_worship","addr:subward":null,"name":"KKKT","service_times":null,"addr:city":"Mwanza","addr:municipality":"Ilemela","religion":"christian","denomination":null,"addr:ward":"Ibungilo"},"geometry":{"type":"Point","coordinates":[32.9211112,-2.490578]}},{"id":"63","type":"Feature","properties":{"id":"mwanza_religious_facilities.64","ogc_fid":64,"fid":64,"osm_id":8536944019,"addr:street":"Lumala Magharibi","amenity":"place_of_worship","addr:subward":"Lumala Magharibi","name":"Sayuni Baptist Church","service_times":"Su 08:00-10:00","addr:city":"Mwanza","addr:municipality":"Ilemela","religion":"christian","denomination":"protestant","addr:ward":"Ilemela"},"geometry":{"type":"Point","coordinates":[32.9230428,-2.480054]}},{"id":"64","type":"Feature","properties":{"id":"mwanza_religious_facilities.65","ogc_fid":65,"fid":65,"osm_id":8536740181,"addr:street":null,"amenity":"place_of_worship","addr:subward":"Bukengwa","name":"HHC","service_times":"Su 08:00-10:00","addr:city":"Mwanza","addr:municipality":"Ilemela","religion":"christian","denomination":"protestant","addr:ward":"Ilemela"},"geometry":{"type":"Point","coordinates":[32.9200321,-2.4564215]}},{"id":"65","type":"Feature","properties":{"id":"mwanza_religious_facilities.66","ogc_fid":66,"fid":66,"osm_id":8536741064,"addr:street":null,"amenity":"place_of_worship","addr:subward":"Mwambani","name":"Istiqama Mosque","service_times":null,"addr:city":"Mwanza","addr:municipality":"Ilemela","religion":"muslim","denomination":"sunni","addr:ward":"Ilemela"},"geometry":{"type":"Point","coordinates":[32.9149571,-2.4533551]}},{"id":"66","type":"Feature","properties":{"id":"mwanza_religious_facilities.67","ogc_fid":67,"fid":67,"osm_id":8536746238,"addr:street":"Kahasa","amenity":"place_of_worship","addr:subward":"Kahasa","name":"Pentecostal Assembly of God","service_times":"Sa 09:00-14:00","addr:city":"Mwanza","addr:municipality":"Ilemela","religion":"christian","denomination":null,"addr:ward":"Ilemela"},"geometry":{"type":"Point","coordinates":[32.9150391,-2.4546931]}},{"id":"67","type":"Feature","properties":{"id":"mwanza_religious_facilities.68","ogc_fid":68,"fid":68,"osm_id":8536747198,"addr:street":null,"amenity":"place_of_worship","addr:subward":"Sabasaba","name":null,"service_times":"Su 08:00-10:00","addr:city":"Mwanza","addr:municipality":"Ilemela","religion":"christian","denomination":"catholic","addr:ward":"Ilemela"},"geometry":{"type":"Point","coordinates":[32.9158495,-2.4671036]}},{"id":"68","type":"Feature","properties":{"id":"mwanza_religious_facilities.69","ogc_fid":69,"fid":69,"osm_id":8536748149,"addr:street":null,"amenity":"place_of_worship","addr:subward":"Balyehele","name":"Masjid Rahma","service_times":"Mo-Fr 17:00-20:00","addr:city":"Mwanza","addr:municipality":"Ilemela","religion":"muslim","denomination":null,"addr:ward":"Ilemela"},"geometry":{"type":"Point","coordinates":[32.9130006,-2.4590021]}},{"id":"69","type":"Feature","properties":{"id":"mwanza_religious_facilities.70","ogc_fid":70,"fid":70,"osm_id":8536748467,"addr:street":"Mzambarauni","amenity":"place_of_worship","addr:subward":"Lumala","name":"Power of Worship Church","service_times":"We 17:00-20:00; Su 08:00-10:00","addr:city":"Mwanza","addr:municipality":"Ilemela","religion":"christian","denomination":"protestant","addr:ward":"Ilemela"},"geometry":{"type":"Point","coordinates":[32.9223106,-2.4673963]}},{"id":"70","type":"Feature","properties":{"id":"mwanza_religious_facilities.71","ogc_fid":71,"fid":71,"osm_id":8536749759,"addr:street":null,"amenity":"place_of_worship","addr:subward":"Bukengwa","name":"Maslim","service_times":"Fr 12:00-15:00","addr:city":"Mwanza","addr:municipality":"Ilemela","religion":"muslim","denomination":"sunni","addr:ward":"Ilemela"},"geometry":{"type":"Point","coordinates":[32.9171658,-2.4574417]}},{"id":"71","type":"Feature","properties":{"id":"mwanza_religious_facilities.72","ogc_fid":72,"fid":72,"osm_id":8536752780,"addr:street":null,"amenity":"place_of_worship","addr:subward":"Bukengwa","name":"HHC","service_times":"Su 08:00-10:00","addr:city":"Mwanza","addr:municipality":"Ilemela","religion":"christian","denomination":"protestant","addr:ward":"Ilemela"},"geometry":{"type":"Point","coordinates":[32.919519,-2.4564865]}},{"id":"72","type":"Feature","properties":{"id":"mwanza_religious_facilities.73","ogc_fid":73,"fid":73,"osm_id":8536753466,"addr:street":null,"amenity":"place_of_worship","addr:subward":"Butuja","name":"Masjid Shafii","service_times":null,"addr:city":"Mwanza","addr:municipality":"Ilemela","religion":"muslim","denomination":"sunni","addr:ward":"Ilemela"},"geometry":{"type":"Point","coordinates":[32.9105544,-2.467663]}},{"id":"73","type":"Feature","properties":{"id":"mwanza_religious_facilities.74","ogc_fid":74,"fid":74,"osm_id":8536753771,"addr:street":"Kahasa","amenity":"place_of_worship","addr:subward":"Kahasa","name":null,"service_times":"Sa 09:00-14:00","addr:city":"Mwanza","addr:municipality":"Ilemela","religion":"christian","denomination":null,"addr:ward":"Ilemela"},"geometry":{"type":"Point","coordinates":[32.9163909,-2.4546716]}},{"id":"74","type":"Feature","properties":{"id":"mwanza_religious_facilities.75","ogc_fid":75,"fid":75,"osm_id":8536755465,"addr:street":null,"amenity":"place_of_worship","addr:subward":null,"name":null,"service_times":null,"addr:city":"Mwanza","addr:municipality":"Ilemela","religion":"christian","denomination":null,"addr:ward":"Ilemela"},"geometry":{"type":"Point","coordinates":[32.9039733,-2.446665]}},{"id":"75","type":"Feature","properties":{"id":"mwanza_religious_facilities.76","ogc_fid":76,"fid":76,"osm_id":8536944100,"addr:street":null,"amenity":"place_of_worship","addr:subward":"Lumala","name":null,"service_times":"Su 08:00-10:00","addr:city":"Mwanza","addr:municipality":"Ilemela","religion":"christian","denomination":"protestant","addr:ward":"Ilemela"},"geometry":{"type":"Point","coordinates":[32.9155755,-2.4732582]}},{"id":"76","type":"Feature","properties":{"id":"mwanza_religious_facilities.77","ogc_fid":77,"fid":77,"osm_id":8536944142,"addr:street":null,"amenity":"place_of_worship","addr:subward":"Sabasaba","name":"Taqwa Mosque","service_times":"Fr 12:00-15:00","addr:city":"Mwanza","addr:municipality":"Ilemela","religion":"muslim","denomination":"sunni","addr:ward":"Ilemela"},"geometry":{"type":"Point","coordinates":[32.9174768,-2.476431]}},{"id":"77","type":"Feature","properties":{"id":"mwanza_religious_facilities.78","ogc_fid":78,"fid":78,"osm_id":8520663804,"addr:street":null,"amenity":"place_of_worship","addr:subward":"Buzuruga Mashariki","name":"Kanisa la Moravian Ushirika wa Nyakato","service_times":"Su 08:00-10:00","addr:city":"Mwanza","addr:municipality":"Ilemela","religion":"christian","denomination":"protestant","addr:ward":"Mecco"},"geometry":{"type":"Point","coordinates":[32.9407364,-2.5339081]}},{"id":"78","type":"Feature","properties":{"id":"mwanza_religious_facilities.79","ogc_fid":79,"fid":79,"osm_id":8520664081,"addr:street":null,"amenity":"place_of_worship","addr:subward":"malulu","name":null,"service_times":"We 17:00-20:00; Su 08:00-10:00","addr:city":"Mwanza","addr:municipality":"Ilemela","religion":"muslim","denomination":"sunni","addr:ward":"Mecco"},"geometry":{"type":"Point","coordinates":[32.9423976,-2.5240217]}},{"id":"79","type":"Feature","properties":{"id":"mwanza_religious_facilities.80","ogc_fid":80,"fid":80,"osm_id":8520663920,"addr:street":null,"amenity":"place_of_worship","addr:subward":"Nundu","name":"Nyakato Romani Catholic","service_times":"Su 08:00-10:00","addr:city":"Mwanza","addr:municipality":"Ilemela","religion":"christian","denomination":"catholic","addr:ward":"Mecco"},"geometry":{"type":"Point","coordinates":[32.9438567,-2.5311387]}},{"id":"80","type":"Feature","properties":{"id":"mwanza_religious_facilities.81","ogc_fid":81,"fid":81,"osm_id":8520663961,"addr:street":null,"amenity":"place_of_worship","addr:subward":"Nundu","name":"Kanisa la Walokole","service_times":"We 17:00-20:00; Su 08:00-10:00","addr:city":"Mwanza","addr:municipality":"Ilemela","religion":"christian","denomination":"protestant","addr:ward":"Mecco"},"geometry":{"type":"Point","coordinates":[32.9441195,-2.526728]}},{"id":"81","type":"Feature","properties":{"id":"mwanza_religious_facilities.82","ogc_fid":82,"fid":82,"osm_id":8520664013,"addr:street":"Nundu","amenity":"place_of_worship","addr:subward":"Mecco","name":"EFATA Church","service_times":"Su 08:00-10:00","addr:city":"Mwanza","addr:municipality":"Ilemela","religion":"christian","denomination":"protestant","addr:ward":"Mecco"},"geometry":{"type":"Point","coordinates":[32.9461527,-2.5236358]}},{"id":"82","type":"Feature","properties":{"id":"mwanza_religious_facilities.83","ogc_fid":83,"fid":83,"osm_id":8520664430,"addr:street":"Nundu","amenity":"place_of_worship","addr:subward":"Mecco","name":"Adventist Church","service_times":"Sa 09:00-14:00","addr:city":"Mwanza","addr:municipality":"Ilemela","religion":"christian","denomination":"protestant","addr:ward":"Mecco"},"geometry":{"type":"Point","coordinates":[32.9464316,-2.5233571]}},{"id":"83","type":"Feature","properties":{"id":"mwanza_religious_facilities.84","ogc_fid":84,"fid":84,"osm_id":8520664446,"addr:street":"Mwambani","amenity":"place_of_worship","addr:subward":"Mwambani","name":null,"service_times":null,"addr:city":"Mwanza","addr:municipality":"Ilemela","religion":"muslim","denomination":"shia","addr:ward":"Mecco"},"geometry":{"type":"Point","coordinates":[32.9486528,-2.5270282]}},{"id":"84","type":"Feature","properties":{"id":"mwanza_religious_facilities.85","ogc_fid":85,"fid":85,"osm_id":4405709396,"addr:street":null,"amenity":"place_of_worship","addr:subward":null,"name":null,"service_times":null,"addr:city":"Mwanza","addr:municipality":"Ilemela","religion":"muslim","denomination":"sunni","addr:ward":"Mecco"},"geometry":{"type":"Point","coordinates":[32.9544513,-2.5352463]}},{"id":"85","type":"Feature","properties":{"id":"mwanza_religious_facilities.86","ogc_fid":86,"fid":86,"osm_id":8520663931,"addr:street":null,"amenity":"place_of_worship","addr:subward":"Gedeli Kivukoni","name":null,"service_times":"Mo-Fr 12:00-14:00","addr:city":"Mwanza","addr:municipality":"Ilemela","religion":"muslim","denomination":null,"addr:ward":"Mecco"},"geometry":{"type":"Point","coordinates":[32.9554224,-2.5290379]}},{"id":"86","type":"Feature","properties":{"id":"mwanza_religious_facilities.87","ogc_fid":87,"fid":87,"osm_id":8520663969,"addr:street":null,"amenity":"place_of_worship","addr:subward":"Buzuruga Mashariki","name":"EAGT church","service_times":"We 17:00-20:00; Su 08:00-10:00","addr:city":"Mwanza","addr:municipality":"Ilemela","religion":"christian","denomination":"protestant","addr:ward":"Mecco"},"geometry":{"type":"Point","coordinates":[32.9423118,-2.5307528]}},{"id":"87","type":"Feature","properties":{"id":"mwanza_religious_facilities.88","ogc_fid":88,"fid":88,"osm_id":8520664294,"addr:street":null,"amenity":"place_of_worship","addr:subward":"Buzuruga Mashariki","name":"FPCTChurch","service_times":"We 17:00-20:00; Su 08:00-10:00","addr:city":"Mwanza","addr:municipality":"Ilemela","religion":"christian","denomination":"protestant","addr:ward":"Mecco"},"geometry":{"type":"Point","coordinates":[32.942331,-2.5299176]}},{"id":"88","type":"Feature","properties":{"id":"mwanza_religious_facilities.89","ogc_fid":89,"fid":89,"osm_id":8553310472,"addr:street":null,"amenity":"place_of_worship","addr:subward":"Nyanshana","name":"Sabatho church","service_times":"Sa 09:00-14:00","addr:city":"Mwanza","addr:municipality":"Nyamagana","religion":"christian","denomination":"protestant","addr:ward":"Isamilo"},"geometry":{"type":"Point","coordinates":[32.9235323,-2.5059305]}},{"id":"89","type":"Feature","properties":{"id":"mwanza_religious_facilities.90","ogc_fid":90,"fid":90,"osm_id":8553313841,"addr:street":null,"amenity":"place_of_worship","addr:subward":"Nyashana","name":"KKKT","service_times":"Su 08:00-10:00","addr:city":"Mwanza","addr:municipality":"Nyamagana","religion":"christian","denomination":"orthodox","addr:ward":"Isamilo"},"geometry":{"type":"Point","coordinates":[32.9211878,-2.5095728]}},{"id":"90","type":"Feature","properties":{"id":"mwanza_religious_facilities.91","ogc_fid":91,"fid":91,"osm_id":8553315331,"addr:street":null,"amenity":"place_of_worship","addr:subward":"Nyashana","name":null,"service_times":"Mo-Fr 12:00-14:00","addr:city":"Mwanza","addr:municipality":"Nyamagana","religion":"muslim","denomination":null,"addr:ward":"Isamilo"},"geometry":{"type":"Point","coordinates":[32.9236695,-2.5049801]}},{"id":"91","type":"Feature","properties":{"id":"mwanza_religious_facilities.92","ogc_fid":92,"fid":92,"osm_id":8553315869,"addr:street":null,"amenity":"place_of_worship","addr:subward":"Nyashana","name":null,"service_times":"Fr 12:00-15:00","addr:city":"Mwanza","addr:municipality":"Nyamagana","religion":"muslim","denomination":null,"addr:ward":"Isamilo"},"geometry":{"type":"Point","coordinates":[32.9188644,-2.5075]}},{"id":"92","type":"Feature","properties":{"id":"mwanza_religious_facilities.93","ogc_fid":93,"fid":93,"osm_id":8553318261,"addr:street":null,"amenity":"place_of_worship","addr:subward":"Nyashana","name":"Nabii G Malisa","service_times":"We 17:00-20:00; Su 08:00-10:00","addr:city":"Mwanza","addr:municipality":"Nyamagana","religion":"christian","denomination":"protestant","addr:ward":"Isamilo"},"geometry":{"type":"Point","coordinates":[32.9216434,-2.5051198]}},{"id":"93","type":"Feature","properties":{"id":"mwanza_religious_facilities.94","ogc_fid":94,"fid":94,"osm_id":8553312335,"addr:street":null,"amenity":"place_of_worship","addr:subward":"Nyashana","name":"Kigango cha B Maria Nyashana","service_times":"Su 08:00-10:00","addr:city":"Mwanza","addr:municipality":"Nyamagana","religion":"christian","denomination":"catholic","addr:ward":"Isamilo"},"geometry":{"type":"Point","coordinates":[32.9223768,-2.5074908]}},{"id":"94","type":"Feature","properties":{"id":"mwanza_religious_facilities.95","ogc_fid":95,"fid":95,"osm_id":8571610936,"addr:street":null,"amenity":"place_of_worship","addr:subward":"Nela","name":null,"service_times":null,"addr:city":"Mwanza","addr:municipality":"Nyamagana","religion":"christian","denomination":"catholic","addr:ward":"Isamilo"},"geometry":{"type":"Point","coordinates":[32.9008341,-2.5115454]}},{"id":"95","type":"Feature","properties":{"id":"mwanza_religious_facilities.96","ogc_fid":96,"fid":96,"osm_id":8553316653,"addr:street":null,"amenity":"place_of_worship","addr:subward":"Nyashana","name":"AICT Church","service_times":"Su 08:00-10:00","addr:city":"Mwanza","addr:municipality":"Nyamagana","religion":"christian","denomination":"protestant","addr:ward":"Isamilo"},"geometry":{"type":"Point","coordinates":[32.918176,-2.5115509]}},{"id":"96","type":"Feature","properties":{"id":"mwanza_religious_facilities.97","ogc_fid":97,"fid":97,"osm_id":8571606246,"addr:street":null,"amenity":"place_of_worship","addr:subward":"Nela","name":"Kanisa Katoliki Nyakahoja","service_times":null,"addr:city":"Mwanza","addr:municipality":"Nyamagana","religion":"christian","denomination":"catholic","addr:ward":"Isamilo"},"geometry":{"type":"Point","coordinates":[32.9004478,-2.5115025]}},{"id":"97","type":"Feature","properties":{"id":"mwanza_religious_facilities.98","ogc_fid":98,"fid":98,"osm_id":8571609677,"addr:street":null,"amenity":"place_of_worship","addr:subward":"Nela","name":"Kanisa Katoliki Nyakahoja","service_times":null,"addr:city":"Mwanza","addr:municipality":"Nyamagana","religion":"christian","denomination":"catholic","addr:ward":"Isamilo"},"geometry":{"type":"Point","coordinates":[32.9006698,-2.5114626]}},{"id":"98","type":"Feature","properties":{"id":"mwanza_religious_facilities.99","ogc_fid":99,"fid":99,"osm_id":8571611114,"addr:street":null,"amenity":"place_of_worship","addr:subward":"Nela","name":"Kanisa Katoliki Nyakahoja","service_times":null,"addr:city":"Mwanza","addr:municipality":"Nyamagana","religion":"christian","denomination":"catholic","addr:ward":"Isamilo"},"geometry":{"type":"Point","coordinates":[32.9005088,-2.5118633]}},{"id":"99","type":"Feature","properties":{"id":"mwanza_religious_facilities.100","ogc_fid":100,"fid":100,"osm_id":8532205811,"addr:street":null,"amenity":"place_of_worship","addr:subward":"Makoroboi","name":"Gurdiwara Siri Guru Singh Sab","service_times":"We 17:00-20:00; Su 08:00-10:00","addr:city":"Mwanza","addr:municipality":"Nyamagana","religion":"buddhist","denomination":null,"addr:ward":"Nyamagana"},"geometry":{"type":"Point","coordinates":[32.9022288,-2.5204632]}},{"id":"100","type":"Feature","properties":{"id":"mwanza_religious_facilities.101","ogc_fid":101,"fid":101,"osm_id":8532207343,"addr:street":null,"amenity":"place_of_worship","addr:subward":"Makoroboi","name":null,"service_times":"Mo-Fr 17:00-20:00","addr:city":"Mwanza","addr:municipality":"Nyamagana","religion":"hindu","denomination":null,"addr:ward":"Nyamagana"},"geometry":{"type":"Point","coordinates":[32.9015207,-2.5202488]}},{"id":"101","type":"Feature","properties":{"id":"mwanza_religious_facilities.102","ogc_fid":102,"fid":102,"osm_id":4223464551,"addr:street":null,"amenity":"place_of_worship","addr:subward":null,"name":"Hindu Temple","service_times":null,"addr:city":"Mwanza","addr:municipality":"Nyamagana","religion":"hindu","denomination":null,"addr:ward":"Nyamagana"},"geometry":{"type":"Point","coordinates":[32.902021,-2.5202147]}},{"id":"102","type":"Feature","properties":{"id":"mwanza_religious_facilities.103","ogc_fid":103,"fid":103,"osm_id":8532227396,"addr:street":null,"amenity":"place_of_worship","addr:subward":"Liberty","name":null,"service_times":"Fr 12:00-15:00","addr:city":"Mwanza","addr:municipality":"Nyamagana","religion":"muslim","denomination":"sufi","addr:ward":"Nyamagana"},"geometry":{"type":"Point","coordinates":[32.9021859,-2.5183623]}},{"id":"103","type":"Feature","properties":{"id":"mwanza_religious_facilities.104","ogc_fid":104,"fid":104,"osm_id":8532228887,"addr:street":null,"amenity":"place_of_worship","addr:subward":"mosque","name":null,"service_times":"Fr 12:00-15:00","addr:city":"Mwanza","addr:municipality":"Nyamagana","religion":"muslim","denomination":"sunni","addr:ward":"Nyamagana"},"geometry":{"type":"Point","coordinates":[32.9012134,-2.5183036]}},{"id":"104","type":"Feature","properties":{"id":"mwanza_religious_facilities.105","ogc_fid":105,"fid":105,"osm_id":8532229137,"addr:street":"Idara Ya Maji","amenity":"place_of_worship","addr:subward":"Idara ya Maji","name":null,"service_times":null,"addr:city":"Mwanza","addr:municipality":"Nyamagana","religion":"muslim","denomination":"sunni","addr:ward":"Nyamagana"},"geometry":{"type":"Point","coordinates":[32.8873587,-2.5279661]}},{"id":"105","type":"Feature","properties":{"id":"mwanza_religious_facilities.106","ogc_fid":106,"fid":106,"osm_id":8532226870,"addr:street":"Kilombelo","amenity":"place_of_worship","addr:subward":"Kilombero","name":null,"service_times":"Fr 12:00-15:00","addr:city":"Mwanza","addr:municipality":"Nyamagana","religion":"muslim","denomination":null,"addr:ward":"Mirongo"},"geometry":{"type":"Point","coordinates":[32.9062866,-2.5194226]}},{"id":"106","type":"Feature","properties":{"id":"mwanza_religious_facilities.107","ogc_fid":107,"fid":107,"osm_id":4404167190,"addr:street":null,"amenity":"place_of_worship","addr:subward":null,"name":null,"service_times":null,"addr:city":"Mwanza","addr:municipality":"Nyamagana","religion":"muslim","denomination":"sunni","addr:ward":"Mirongo"},"geometry":{"type":"Point","coordinates":[32.9033648,-2.5165493]}},{"id":"107","type":"Feature","properties":{"id":"mwanza_religious_facilities.108","ogc_fid":108,"fid":108,"osm_id":8532228946,"addr:street":null,"amenity":"place_of_worship","addr:subward":"Kilombero","name":null,"service_times":"Fr 12:00-15:00","addr:city":"Mwanza","addr:municipality":"Nyamagana","religion":"muslim","denomination":"sunni","addr:ward":"Mirongo"},"geometry":{"type":"Point","coordinates":[32.9058575,-2.5197344]}},{"id":"108","type":"Feature","properties":{"id":"mwanza_religious_facilities.109","ogc_fid":109,"fid":109,"osm_id":8553311311,"addr:street":null,"amenity":"place_of_worship","addr:subward":"Nyanshana","name":"EAGT","service_times":"We 17:00-20:00; Su 08:00-10:00","addr:city":"Mwanza","addr:municipality":"Nyamagana","religion":"christian","denomination":"protestant","addr:ward":"Mbugani"},"geometry":{"type":"Point","coordinates":[32.9260039,-2.5089729]}},{"id":"109","type":"Feature","properties":{"id":"mwanza_religious_facilities.110","ogc_fid":110,"fid":110,"osm_id":8520976053,"addr:street":"Sinai","amenity":"place_of_worship","addr:subward":"Sinai","name":"KKKT Yerusalem","service_times":"Su 08:00-10:00","addr:city":"Mwanza","addr:municipality":"Nyamagana","religion":"christian","denomination":"protestant","addr:ward":"Mbugani"},"geometry":{"type":"Point","coordinates":[32.9246997,-2.5275228]}},{"id":"110","type":"Feature","properties":{"id":"mwanza_religious_facilities.111","ogc_fid":111,"fid":111,"osm_id":8520664138,"addr:street":"Majengo Mapya","amenity":"place_of_worship","addr:subward":"Majengo Mapya","name":"EAGT Church","service_times":"Su 08:00-10:00","addr:city":"Mwanza","addr:municipality":"Nyamagana","religion":"christian","denomination":"orthodox","addr:ward":"Mbugani"},"geometry":{"type":"Point","coordinates":[32.9273462,-2.5235538]}},{"id":"111","type":"Feature","properties":{"id":"mwanza_religious_facilities.112","ogc_fid":112,"fid":112,"osm_id":8520976045,"addr:street":null,"amenity":"place_of_worship","addr:subward":"Majengo Mapya","name":"Agano Sabath","service_times":"Sa 09:00-14:00","addr:city":"Mwanza","addr:municipality":"Nyamagana","religion":"christian","denomination":"protestant","addr:ward":"Mbugani"},"geometry":{"type":"Point","coordinates":[32.9279297,-2.5287459]}},{"id":"112","type":"Feature","properties":{"id":"mwanza_religious_facilities.113","ogc_fid":113,"fid":113,"osm_id":8520976392,"addr:street":"Majengo Mapya","amenity":"place_of_worship","addr:subward":"Majengo Mapya","name":"Twaqah","service_times":"Fr 12:00-15:00","addr:city":"Mwanza","addr:municipality":"Nyamagana","religion":"muslim","denomination":null,"addr:ward":"Mbugani"},"geometry":{"type":"Point","coordinates":[32.9241014,-2.5260008]}},{"id":"113","type":"Feature","properties":{"id":"mwanza_religious_facilities.114","ogc_fid":114,"fid":114,"osm_id":8520976625,"addr:street":"Sinai Juu","amenity":"place_of_worship","addr:subward":"Sinai","name":"Adventist","service_times":"Sa 09:00-14:00","addr:city":"Mwanza","addr:municipality":"Nyamagana","religion":"christian","denomination":"protestant","addr:ward":"Mbugani"},"geometry":{"type":"Point","coordinates":[32.9279341,-2.5287675]}},{"id":"114","type":"Feature","properties":{"id":"mwanza_religious_facilities.115","ogc_fid":115,"fid":115,"osm_id":8520976377,"addr:street":null,"amenity":"place_of_worship","addr:subward":"Mwembegile","name":"EAGT Mabatini A","service_times":"Sa 09:00-14:00","addr:city":"Mwanza","addr:municipality":"Nyamagana","religion":"christian","denomination":"protestant","addr:ward":"Mbugani"},"geometry":{"type":"Point","coordinates":[32.926352,-2.5262869]}},{"id":"115","type":"Feature","properties":{"id":"mwanza_religious_facilities.116","ogc_fid":116,"fid":116,"osm_id":8520976029,"addr:street":null,"amenity":"place_of_worship","addr:subward":"Bugarika","name":null,"service_times":"We 17:00-20:00; Su 08:00-10:00","addr:city":"Mwanza","addr:municipality":"Nyamagana","religion":"christian","denomination":"protestant","addr:ward":"Pamba"},"geometry":{"type":"Point","coordinates":[32.9171419,-2.5358119]}},{"id":"116","type":"Feature","properties":{"id":"mwanza_religious_facilities.117","ogc_fid":117,"fid":117,"osm_id":8520976508,"addr:street":null,"amenity":"place_of_worship","addr:subward":"Zahanati","name":"Pentekoste","service_times":"Su 08:00-10:00","addr:city":"Mwanza","addr:municipality":"Nyamagana","religion":"christian","denomination":"catholic","addr:ward":"Pamba"},"geometry":{"type":"Point","coordinates":[32.9170775,-2.5342899]}},{"id":"117","type":"Feature","properties":{"id":"mwanza_religious_facilities.118","ogc_fid":118,"fid":118,"osm_id":8520976393,"addr:street":null,"amenity":"place_of_worship","addr:subward":"Bugarika kaskazini","name":"Masjid Madiynah","service_times":"Fr 12:00-15:00","addr:city":"Mwanza","addr:municipality":"Nyamagana","religion":"muslim","denomination":null,"addr:ward":"Pamba"},"geometry":{"type":"Point","coordinates":[32.9205212,-2.5335137]}},{"id":"118","type":"Feature","properties":{"id":"mwanza_religious_facilities.119","ogc_fid":119,"fid":119,"osm_id":8520975759,"addr:street":null,"amenity":"place_of_worship","addr:subward":"Bugarika","name":"BAKWATA","service_times":"Fr 12:00-15:00","addr:city":"Mwanza","addr:municipality":"Nyamagana","religion":"muslim","denomination":"shia","addr:ward":"Pamba"},"geometry":{"type":"Point","coordinates":[32.9140091,-2.5324678]}},{"id":"119","type":"Feature","properties":{"id":"mwanza_religious_facilities.120","ogc_fid":120,"fid":120,"osm_id":8520963998,"addr:street":"Mlimani","amenity":"place_of_worship","addr:subward":"Bugharika Kasikazini","name":"Africa Inland Church","service_times":"Su 08:00-10:00","addr:city":"Mwanza","addr:municipality":"Nyamagana","religion":"christian","denomination":"orthodox","addr:ward":"Pamba"},"geometry":{"type":"Point","coordinates":[32.9145241,-2.5308172]}},{"id":"120","type":"Feature","properties":{"id":"mwanza_religious_facilities.121","ogc_fid":121,"fid":121,"osm_id":8532205959,"addr:street":null,"amenity":"place_of_worship","addr:subward":"Zahanati","name":"Roman Catholic","service_times":"Su 08:00-10:00","addr:city":"Mwanza","addr:municipality":"Nyamagana","religion":"christian","denomination":"catholic","addr:ward":"Pamba"},"geometry":{"type":"Point","coordinates":[32.9067964,-2.5290364]}},{"id":"121","type":"Feature","properties":{"id":"mwanza_religious_facilities.122","ogc_fid":122,"fid":122,"osm_id":8532206756,"addr:street":null,"amenity":"place_of_worship","addr:subward":"Miti Mirefu","name":null,"service_times":"Sa 09:00-14:00","addr:city":"Mwanza","addr:municipality":"Nyamagana","religion":"christian","denomination":"catholic","addr:ward":"Pamba"},"geometry":{"type":"Point","coordinates":[32.9045972,-2.5244149]}},{"id":"122","type":"Feature","properties":{"id":"mwanza_religious_facilities.123","ogc_fid":123,"fid":123,"osm_id":8532207269,"addr:street":null,"amenity":"place_of_worship","addr:subward":"Rumumba","name":null,"service_times":"Fr 12:00-15:00","addr:city":"Mwanza","addr:municipality":"Nyamagana","religion":"muslim","denomination":"shia","addr:ward":"Pamba"},"geometry":{"type":"Point","coordinates":[32.9016066,-2.5226069]}},{"id":"123","type":"Feature","properties":{"id":"mwanza_religious_facilities.124","ogc_fid":124,"fid":124,"osm_id":8532207388,"addr:street":"Miti Mirefu","amenity":"place_of_worship","addr:subward":"Miti Mirefu","name":"Aga Khan","service_times":null,"addr:city":"Mwanza","addr:municipality":"Nyamagana","religion":"hindu","denomination":"sunni","addr:ward":"Pamba"},"geometry":{"type":"Point","coordinates":[32.9065534,-2.5218551]}},{"id":"124","type":"Feature","properties":{"id":"mwanza_religious_facilities.125","ogc_fid":125,"fid":125,"osm_id":4527906890,"addr:street":null,"amenity":"place_of_worship","addr:subward":null,"name":"Al Jumaa Mosque","service_times":null,"addr:city":"Mwanza","addr:municipality":"Nyamagana","religion":"muslim","denomination":"sunni","addr:ward":"Pamba"},"geometry":{"type":"Point","coordinates":[32.9026233,-2.5202055]}},{"id":"125","type":"Feature","properties":{"id":"mwanza_religious_facilities.126","ogc_fid":126,"fid":126,"osm_id":8532206130,"addr:street":"Nyerere road","amenity":"place_of_worship","addr:subward":"Pamba A","name":"Msikiti wa Ijumaa","service_times":"Fr 12:00-15:00","addr:city":"Mwanza","addr:municipality":"Nyamagana","religion":"muslim","denomination":null,"addr:ward":"Pamba"},"geometry":{"type":"Point","coordinates":[32.90285,-2.519841]}},{"id":"126","type":"Feature","properties":{"id":"mwanza_religious_facilities.127","ogc_fid":127,"fid":127,"osm_id":8520975855,"addr:street":null,"amenity":"place_of_worship","addr:subward":"Zahanati","name":"Jumba La Ufalme La Mashahidi Wa Yeho and","service_times":"Fr 12:00-15:00","addr:city":"Mwanza","addr:municipality":"Nyamagana","religion":"christian","denomination":"protestant","addr:ward":"Pamba"},"geometry":{"type":"Point","coordinates":[32.9158054,-2.5325321]}},{"id":"127","type":"Feature","properties":{"id":"mwanza_religious_facilities.128","ogc_fid":128,"fid":128,"osm_id":8532207024,"addr:street":"Mchafu kuoga","amenity":"place_of_worship","addr:subward":"Azimio","name":"Nyanza Pentecoste Church","service_times":"Su 08:00-10:00","addr:city":"Mwanza","addr:municipality":"Nyamagana","religion":"christian","denomination":"protestant","addr:ward":"Igogo"},"geometry":{"type":"Point","coordinates":[32.907918,-2.5431698]}},{"id":"128","type":"Feature","properties":{"id":"mwanza_religious_facilities.129","ogc_fid":129,"fid":129,"osm_id":8532206253,"addr:street":null,"amenity":"place_of_worship","addr:subward":"Malulu","name":"AGT- Igogo","service_times":"We 17:00-20:00; Su 08:00-10:00","addr:city":"Mwanza","addr:municipality":"Nyamagana","religion":"christian","denomination":"catholic","addr:ward":"Igogo"},"geometry":{"type":"Point","coordinates":[32.9099321,-2.541857]}},{"id":"129","type":"Feature","properties":{"id":"mwanza_religious_facilities.130","ogc_fid":130,"fid":130,"osm_id":8532205861,"addr:street":null,"amenity":"place_of_worship","addr:subward":"Malulu","name":"AIC (T)-Igogo","service_times":"Su 08:00-10:00","addr:city":"Mwanza","addr:municipality":"Nyamagana","religion":"christian","denomination":"catholic","addr:ward":"Igogo"},"geometry":{"type":"Point","coordinates":[32.9103613,-2.5416855]}},{"id":"130","type":"Feature","properties":{"id":"mwanza_religious_facilities.131","ogc_fid":131,"fid":131,"osm_id":8532206426,"addr:street":null,"amenity":"place_of_worship","addr:subward":"Azimio","name":null,"service_times":"Fr 12:00-15:00","addr:city":"Mwanza","addr:municipality":"Nyamagana","religion":"muslim","denomination":"sunni","addr:ward":"Igogo"},"geometry":{"type":"Point","coordinates":[32.9097605,-2.5404208]}},{"id":"131","type":"Feature","properties":{"id":"mwanza_religious_facilities.132","ogc_fid":132,"fid":132,"osm_id":8532206031,"addr:street":null,"amenity":"place_of_worship","addr:subward":"Azimio","name":"RC Church","service_times":"Su 08:00-10:00","addr:city":"Mwanza","addr:municipality":"Nyamagana","religion":"christian","denomination":"catholic","addr:ward":"Igogo"},"geometry":{"type":"Point","coordinates":[32.9079635,-2.5403444]}},{"id":"132","type":"Feature","properties":{"id":"mwanza_religious_facilities.133","ogc_fid":133,"fid":133,"osm_id":8532205636,"addr:street":null,"amenity":"place_of_worship","addr:subward":"Malulu","name":"Goshen International Church","service_times":"Fr 12:00-15:00","addr:city":"Mwanza","addr:municipality":"Nyamagana","religion":"christian","denomination":"protestant","addr:ward":"Igogo"},"geometry":{"type":"Point","coordinates":[32.9099592,-2.5400916]}},{"id":"133","type":"Feature","properties":{"id":"mwanza_religious_facilities.134","ogc_fid":134,"fid":134,"osm_id":8532206871,"addr:street":null,"amenity":"place_of_worship","addr:subward":"Kwimba","name":"The Free Pentecostal Church of Tanzania","service_times":"Su 08:00-10:00","addr:city":"Mwanza","addr:municipality":"Nyamagana","religion":"christian","denomination":"protestant","addr:ward":"Igogo"},"geometry":{"type":"Point","coordinates":[32.9089798,-2.5395762]}},{"id":"134","type":"Feature","properties":{"id":"mwanza_religious_facilities.135","ogc_fid":135,"fid":135,"osm_id":8532198780,"addr:street":null,"amenity":"place_of_worship","addr:subward":"Azimio","name":"Masjid Tawfiq","service_times":null,"addr:city":"Mwanza","addr:municipality":"Nyamagana","religion":"muslim","denomination":"sunni","addr:ward":"Igogo"},"geometry":{"type":"Point","coordinates":[32.9068663,-2.5392929]}},{"id":"135","type":"Feature","properties":{"id":"mwanza_religious_facilities.136","ogc_fid":136,"fid":136,"osm_id":8532206048,"addr:street":null,"amenity":"place_of_worship","addr:subward":"Azimio","name":"Masjid Tawfiq","service_times":null,"addr:city":"Mwanza","addr:municipality":"Nyamagana","religion":"muslim","denomination":"sunni","addr:ward":"Igogo"},"geometry":{"type":"Point","coordinates":[32.9071512,-2.5392017]}},{"id":"136","type":"Feature","properties":{"id":"mwanza_religious_facilities.137","ogc_fid":137,"fid":137,"osm_id":8532206082,"addr:street":"Mansuli Road","amenity":"place_of_worship","addr:subward":"Malulu","name":"Tanzania Assemblies of God (TAG)","service_times":"Su 08:00-10:00","addr:city":"Mwanza","addr:municipality":"Nyamagana","religion":"christian","denomination":"protestant","addr:ward":"Igogo"},"geometry":{"type":"Point","coordinates":[32.910289,-2.5390215]}},{"id":"137","type":"Feature","properties":{"id":"mwanza_religious_facilities.138","ogc_fid":138,"fid":138,"osm_id":8520976022,"addr:street":null,"amenity":"place_of_worship","addr:subward":"Jiwe","name":"EAGT mizeituni Igogo","service_times":"We 17:00-20:00; Su 08:00-10:00","addr:city":"Mwanza","addr:municipality":"Nyamagana","religion":"christian","denomination":"protestant","addr:ward":"Igogo"},"geometry":{"type":"Point","coordinates":[32.9132795,-2.5377198]}},{"id":"138","type":"Feature","properties":{"id":"mwanza_religious_facilities.139","ogc_fid":139,"fid":139,"osm_id":8532206415,"addr:street":null,"amenity":"place_of_worship","addr:subward":null,"name":"Madrasat Ar Rahman Igogo","service_times":"Fr 12:00-15:00","addr:city":"Mwanza","addr:municipality":"Nyamagana","religion":"muslim","denomination":null,"addr:ward":"Igogo"},"geometry":{"type":"Point","coordinates":[32.9062666,-2.535243]}},{"id":"139","type":"Feature","properties":{"id":"mwanza_religious_facilities.140","ogc_fid":140,"fid":140,"osm_id":8520975841,"addr:street":null,"amenity":"place_of_worship","addr:subward":"Bugarika Kusini","name":"Kanisa Jipya la Kimitume Bugarika","service_times":null,"addr:city":"Mwanza","addr:municipality":"Nyamagana","religion":"christian","denomination":"protestant","addr:ward":"Igogo"},"geometry":{"type":"Point","coordinates":[32.9159832,-2.5350616]}},{"id":"140","type":"Feature","properties":{"id":"mwanza_religious_facilities.141","ogc_fid":141,"fid":141,"osm_id":8532206160,"addr:street":"Minja","amenity":"place_of_worship","addr:subward":"Minja","name":"Kanisa La Waadventista Wasabato Mwenge","service_times":"Sa 09:00-14:00","addr:city":"Mwanza","addr:municipality":"Nyamagana","religion":"christian","denomination":"protestant","addr:ward":"Igogo"},"geometry":{"type":"Point","coordinates":[32.9076791,-2.5335182]}},{"id":"141","type":"Feature","properties":{"id":"mwanza_religious_facilities.142","ogc_fid":142,"fid":142,"osm_id":8520976356,"addr:street":null,"amenity":"place_of_worship","addr:subward":"Minja","name":"Sabato","service_times":"Sa 09:00-14:00","addr:city":"Mwanza","addr:municipality":"Nyamagana","religion":"christian","denomination":"protestant","addr:ward":"Igogo"},"geometry":{"type":"Point","coordinates":[32.9118288,-2.5322283]}},{"id":"142","type":"Feature","properties":{"id":"mwanza_religious_facilities.143","ogc_fid":143,"fid":143,"osm_id":8532206369,"addr:street":"Minja","amenity":"place_of_worship","addr:subward":"Minja","name":"Hope Chapel","service_times":"Su 08:00-10:00","addr:city":"Mwanza","addr:municipality":"Nyamagana","religion":"christian","denomination":"catholic","addr:ward":"Igogo"},"geometry":{"type":"Point","coordinates":[32.9069495,-2.5321677]}},{"id":"143","type":"Feature","properties":{"id":"mwanza_religious_facilities.144","ogc_fid":144,"fid":144,"osm_id":8532207313,"addr:street":null,"amenity":"place_of_worship","addr:subward":"Mungulushi","name":"IPHC","service_times":"Su 08:00-10:00","addr:city":"Mwanza","addr:municipality":"Nyamagana","religion":"christian","denomination":"protestant","addr:ward":"Igogo"},"geometry":{"type":"Point","coordinates":[32.9067135,-2.5319319]}},{"id":"144","type":"Feature","properties":{"id":"mwanza_religious_facilities.145","ogc_fid":145,"fid":145,"osm_id":8532206397,"addr:street":"Mlungushi","amenity":"place_of_worship","addr:subward":"Mlungushi","name":"FPCT","service_times":"We 17:00-20:00; Su 08:00-10:00","addr:city":"Mwanza","addr:municipality":"Nyamagana","religion":"christian","denomination":"protestant","addr:ward":"Igogo"},"geometry":{"type":"Point","coordinates":[32.9051286,-2.53168]}},{"id":"145","type":"Feature","properties":{"id":"mwanza_religious_facilities.146","ogc_fid":146,"fid":146,"osm_id":8520975776,"addr:street":null,"amenity":"place_of_worship","addr:subward":"Minja","name":"RGC Jerusalem","service_times":"Su 08:00-10:00","addr:city":"Mwanza","addr:municipality":"Nyamagana","religion":"christian","denomination":"protestant","addr:ward":"Igogo"},"geometry":{"type":"Point","coordinates":[32.9113054,-2.5319747]}},{"id":"146","type":"Feature","properties":{"id":"mwanza_religious_facilities.147","ogc_fid":147,"fid":147,"osm_id":8520680569,"addr:street":null,"amenity":"place_of_worship","addr:subward":"Sokoni","name":"KKKT","service_times":"We 17:00-20:00; Su 08:00-10:00","addr:city":"Mwanza","addr:municipality":"Nyamagana","religion":"christian","denomination":"orthodox","addr:ward":"Mkuyuni"},"geometry":{"type":"Point","coordinates":[32.9119706,-2.55787]}},{"id":"147","type":"Feature","properties":{"id":"mwanza_religious_facilities.148","ogc_fid":148,"fid":148,"osm_id":8520680554,"addr:street":null,"amenity":"place_of_worship","addr:subward":"Mkuyuni sokoni","name":"International Pentecostal Holiness Church","service_times":"Su 08:00-10:00","addr:city":"Mwanza","addr:municipality":"Nyamagana","religion":"christian","denomination":"protestant","addr:ward":"Mkuyuni"},"geometry":{"type":"Point","coordinates":[32.9140091,-2.5572913]}},{"id":"148","type":"Feature","properties":{"id":"mwanza_religious_facilities.149","ogc_fid":149,"fid":149,"osm_id":8520688081,"addr:street":"Mahakama","amenity":"place_of_worship","addr:subward":"Mahakama","name":"AGT(Assemblies of God International Tanzania)","service_times":"We 17:00-20:00; Su 08:00-10:00","addr:city":"Mwanza","addr:municipality":"Nyamagana","religion":"christian","denomination":"protestant","addr:ward":"Mkuyuni"},"geometry":{"type":"Point","coordinates":[32.9169703,-2.5593063]}},{"id":"149","type":"Feature","properties":{"id":"mwanza_religious_facilities.150","ogc_fid":150,"fid":150,"osm_id":8520688251,"addr:street":null,"amenity":"place_of_worship","addr:subward":"Sokoni","name":"Assembly of God","service_times":"We 17:00-20:00; Su 08:00-10:00","addr:city":"Mwanza","addr:municipality":"Nyamagana","religion":"christian","denomination":"protestant","addr:ward":"Mkuyuni"},"geometry":{"type":"Point","coordinates":[32.9161962,-2.5583682]}},{"id":"150","type":"Feature","properties":{"id":"mwanza_religious_facilities.151","ogc_fid":151,"fid":151,"osm_id":8520688358,"addr:street":null,"amenity":"place_of_worship","addr:subward":"Nyakurunduma","name":"Masjid Riyaadha","service_times":null,"addr:city":"Mwanza","addr:municipality":"Nyamagana","religion":"muslim","denomination":"sunni","addr:ward":"Mkuyuni"},"geometry":{"type":"Point","coordinates":[32.9206181,-2.5569268]}},{"id":"151","type":"Feature","properties":{"id":"mwanza_religious_facilities.152","ogc_fid":152,"fid":152,"osm_id":8520688369,"addr:street":"Sokoni","amenity":"place_of_worship","addr:subward":"sokoni","name":null,"service_times":"Fr 12:00-15:00","addr:city":"Mwanza","addr:municipality":"Nyamagana","religion":"muslim","denomination":"shia","addr:ward":"Mkuyuni"},"geometry":{"type":"Point","coordinates":[32.9103057,-2.5573406]}},{"id":"152","type":"Feature","properties":{"id":"mwanza_religious_facilities.153","ogc_fid":153,"fid":153,"osm_id":8520688373,"addr:street":null,"amenity":"place_of_worship","addr:subward":"Nyakurunduma","name":"AICT","service_times":"Su 08:00-10:00","addr:city":"Mwanza","addr:municipality":"Nyamagana","religion":"christian","denomination":"protestant","addr:ward":"Mkuyuni"},"geometry":{"type":"Point","coordinates":[32.9185581,-2.554333]}},{"id":"153","type":"Feature","properties":{"id":"mwanza_religious_facilities.154","ogc_fid":154,"fid":154,"osm_id":8520687971,"addr:street":null,"amenity":"place_of_worship","addr:subward":"Relwe","name":"Roman Catholic","service_times":"Su 08:00-10:00","addr:city":"Mwanza","addr:municipality":"Nyamagana","religion":"christian","denomination":"catholic","addr:ward":"Mkuyuni"},"geometry":{"type":"Point","coordinates":[32.9071451,-2.5478943]}},{"id":"154","type":"Feature","properties":{"id":"mwanza_religious_facilities.155","ogc_fid":155,"fid":155,"osm_id":8520688297,"addr:street":null,"amenity":"place_of_worship","addr:subward":"Relwe","name":"Al_Masjid latwif","service_times":"Fr 12:00-15:00","addr:city":"Mwanza","addr:municipality":"Nyamagana","religion":"muslim","denomination":"sunni","addr:ward":"Mkuyuni"},"geometry":{"type":"Point","coordinates":[32.9107418,-2.5476983]}},{"id":"155","type":"Feature","properties":{"id":"mwanza_religious_facilities.156","ogc_fid":156,"fid":156,"osm_id":8520680522,"addr:street":null,"amenity":"place_of_worship","addr:subward":"Shede","name":null,"service_times":"Su 08:00-10:00","addr:city":"Mwanza","addr:municipality":"Nyamagana","religion":"christian","denomination":"catholic","addr:ward":"Mkuyuni"},"geometry":{"type":"Point","coordinates":[32.9074684,-2.5463144]}},{"id":"156","type":"Feature","properties":{"id":"mwanza_religious_facilities.157","ogc_fid":157,"fid":157,"osm_id":8520687936,"addr:street":"Relwe","amenity":"place_of_worship","addr:subward":"Relwe","name":"Kwa Neema","service_times":null,"addr:city":"Mwanza","addr:municipality":"Nyamagana","religion":"christian","denomination":"protestant","addr:ward":"Mkuyuni"},"geometry":{"type":"Point","coordinates":[32.9109211,-2.5456008]}},{"id":"157","type":"Feature","properties":{"id":"mwanza_religious_facilities.158","ogc_fid":158,"fid":158,"osm_id":8520688261,"addr:street":"Azimio","amenity":"place_of_worship","addr:subward":"Azimio","name":null,"service_times":"Fr 12:00-15:00","addr:city":"Mwanza","addr:municipality":"Nyamagana","religion":"muslim","denomination":null,"addr:ward":"Mkuyuni"},"geometry":{"type":"Point","coordinates":[32.910246,-2.5450198]}},{"id":"158","type":"Feature","properties":{"id":"mwanza_religious_facilities.159","ogc_fid":159,"fid":159,"osm_id":8520680543,"addr:street":null,"amenity":"place_of_worship","addr:subward":"Swila","name":"Adventist","service_times":"Sa 09:00-14:00","addr:city":"Mwanza","addr:municipality":"Nyamagana","religion":"christian","denomination":"catholic","addr:ward":"Nyegezi"},"geometry":{"type":"Point","coordinates":[32.9229047,-2.5789119]}},{"id":"159","type":"Feature","properties":{"id":"mwanza_religious_facilities.160","ogc_fid":160,"fid":160,"osm_id":8520688195,"addr:street":null,"amenity":"place_of_worship","addr:subward":"Ibanda","name":null,"service_times":"We 17:00-20:00; Su 08:00-10:00","addr:city":"Mwanza","addr:municipality":"Nyamagana","religion":"christian","denomination":"protestant","addr:ward":"Nyegezi"},"geometry":{"type":"Point","coordinates":[32.9202747,-2.5746331]}},{"id":"160","type":"Feature","properties":{"id":"mwanza_religious_facilities.161","ogc_fid":161,"fid":161,"osm_id":8520688361,"addr:street":null,"amenity":"place_of_worship","addr:subward":"Swila","name":"Adventist","service_times":"Sa 09:00-14:00","addr:city":"Mwanza","addr:municipality":"Nyamagana","religion":"christian","denomination":"catholic","addr:ward":"Nyegezi"},"geometry":{"type":"Point","coordinates":[32.9230516,-2.5787917]}},{"id":"161","type":"Feature","properties":{"id":"mwanza_religious_facilities.162","ogc_fid":162,"fid":162,"osm_id":8520688380,"addr:street":null,"amenity":"place_of_worship","addr:subward":"swila","name":null,"service_times":null,"addr:city":"Mwanza","addr:municipality":"Nyamagana","religion":"muslim","denomination":"sunni","addr:ward":"Nyegezi"},"geometry":{"type":"Point","coordinates":[32.9286003,-2.5749975]}},{"id":"162","type":"Feature","properties":{"id":"mwanza_religious_facilities.163","ogc_fid":163,"fid":163,"osm_id":6279628902,"addr:street":null,"amenity":"place_of_worship","addr:subward":null,"name":"Nganza Roman Catholic Church","service_times":null,"addr:city":"Mwanza","addr:municipality":"Nyamagana","religion":"christian","denomination":null,"addr:ward":"Nyegezi"},"geometry":{"type":"Point","coordinates":[32.9138985,-2.5872354]}},{"id":"163","type":"Feature","properties":{"id":"mwanza_religious_facilities.164","ogc_fid":164,"fid":164,"osm_id":8506790300,"addr:street":null,"amenity":"place_of_worship","addr:subward":"Buhongwa Magharibi","name":"Pentecostal Church of Miracle","service_times":"Su 08:00-10:00","addr:city":"Mwanza","addr:municipality":"Nyamagana","religion":"christian","denomination":"protestant","addr:ward":"Buhongwa"},"geometry":{"type":"Point","coordinates":[32.9462171,-2.6220272]}},{"id":"164","type":"Feature","properties":{"id":"mwanza_religious_facilities.165","ogc_fid":165,"fid":165,"osm_id":8506790299,"addr:street":null,"amenity":"place_of_worship","addr:subward":"Buhongwa Magharibi","name":"Evangelical Assemblies of God(E. A. G. T)","service_times":"Su 08:00-10:00","addr:city":"Mwanza","addr:municipality":"Nyamagana","religion":"christian","denomination":"protestant","addr:ward":"Buhongwa"},"geometry":{"type":"Point","coordinates":[32.9465593,-2.6207957]}},{"id":"165","type":"Feature","properties":{"id":"mwanza_religious_facilities.166","ogc_fid":166,"fid":166,"osm_id":8506790277,"addr:street":null,"amenity":"place_of_worship","addr:subward":"Buhongwa Magharibi","name":"Free Pentecostal Church of Tanzania (FPCT)","service_times":"Su 08:00-10:00","addr:city":"Mwanza","addr:municipality":"Nyamagana","religion":"christian","denomination":"protestant","addr:ward":"Buhongwa"},"geometry":{"type":"Point","coordinates":[32.946213,-2.6203379]}},{"id":"166","type":"Feature","properties":{"id":"mwanza_religious_facilities.167","ogc_fid":167,"fid":167,"osm_id":8506790285,"addr:street":null,"amenity":"place_of_worship","addr:subward":"Buhongwa Magharibi","name":"Revival mission Church","service_times":"Su 08:00-10:00","addr:city":"Mwanza","addr:municipality":"Nyamagana","religion":"christian","denomination":"protestant","addr:ward":"Buhongwa"},"geometry":{"type":"Point","coordinates":[32.9499936,-2.6199909]}},{"id":"167","type":"Feature","properties":{"id":"mwanza_religious_facilities.168","ogc_fid":168,"fid":172,"osm_id":8499023317,"addr:street":"Mahina Street","amenity":"place_of_worship","addr:subward":null,"name":"K.K.K.T","service_times":null,"addr:city":"Mwanza","addr:municipality":"Nyamagana","religion":"christian","denomination":null,"addr:ward":"Mahina"},"geometry":{"type":"Point","coordinates":[32.9530982,-2.5547226]}},{"id":"168","type":"Feature","properties":{"id":"mwanza_religious_facilities.169","ogc_fid":169,"fid":173,"osm_id":8499296417,"addr:street":"Mahina","amenity":"place_of_worship","addr:subward":null,"name":"SDA Church","service_times":null,"addr:city":"Mwanza","addr:municipality":"Nyamagana","religion":"christian","denomination":null,"addr:ward":"Mahina"},"geometry":{"type":"Point","coordinates":[32.9520635,-2.562107]}},{"id":"169","type":"Feature","properties":{"id":"mwanza_religious_facilities.170","ogc_fid":170,"fid":174,"osm_id":8499296717,"addr:street":"Mahina","amenity":"place_of_worship","addr:subward":null,"name":"IBFCT Church","service_times":null,"addr:city":"Mwanza","addr:municipality":"Nyamagana","religion":"christian","denomination":null,"addr:ward":"Mahina"},"geometry":{"type":"Point","coordinates":[32.9405226,-2.5558314]}},{"id":"170","type":"Feature","properties":{"id":"mwanza_religious_facilities.171","ogc_fid":171,"fid":175,"osm_id":8520976313,"addr:street":"Igelegele Road","amenity":"place_of_worship","addr:subward":"Igelegele","name":"Al Masjid lah","service_times":null,"addr:city":"Mwanza","addr:municipality":"Nyamagana","religion":"muslim","denomination":"sunni","addr:ward":"Mahina"},"geometry":{"type":"Point","coordinates":[32.9231974,-2.5357824]}},{"id":"171","type":"Feature","properties":{"id":"mwanza_religious_facilities.172","ogc_fid":172,"fid":176,"osm_id":8499249319,"addr:street":"Mahina street","amenity":"place_of_worship","addr:subward":null,"name":"EL Bethel Church","service_times":null,"addr:city":"Mwanza","addr:municipality":"Nyamagana","religion":"christian","denomination":null,"addr:ward":"Mhandu"},"geometry":{"type":"Point","coordinates":[32.9567015,-2.5547933]}},{"id":"172","type":"Feature","properties":{"id":"mwanza_religious_facilities.173","ogc_fid":173,"fid":177,"osm_id":8506479317,"addr:street":"Mhandu","amenity":"place_of_worship","addr:subward":null,"name":"EAGT Church","service_times":null,"addr:city":"Mwanza","addr:municipality":"Nyamagana","religion":"christian","denomination":null,"addr:ward":"Mhandu"},"geometry":{"type":"Point","coordinates":[32.9691724,-2.5562755]}},{"id":"173","type":"Feature","properties":{"id":"mwanza_religious_facilities.174","ogc_fid":174,"fid":178,"osm_id":8506493817,"addr:street":"Mhandu","amenity":"place_of_worship","addr:subward":null,"name":"Roman Catholic Church","service_times":null,"addr:city":"Mwanza","addr:municipality":"Nyamagana","religion":"christian","denomination":null,"addr:ward":"Mhandu"},"geometry":{"type":"Point","coordinates":[32.9755456,-2.5685288]}},{"id":"174","type":"Feature","properties":{"id":"mwanza_religious_facilities.175","ogc_fid":175,"fid":179,"osm_id":8506493917,"addr:street":"Mhandu","amenity":"place_of_worship","addr:subward":null,"name":"Mhandu mosque","service_times":null,"addr:city":"Mwanza","addr:municipality":"Nyamagana","religion":"muslim","denomination":null,"addr:ward":"Mhandu"},"geometry":{"type":"Point","coordinates":[32.9761429,-2.5682939]}},{"id":"175","type":"Feature","properties":{"id":"mwanza_religious_facilities.176","ogc_fid":176,"fid":180,"osm_id":8496406617,"addr:street":"Buswelu Road","amenity":"place_of_worship","addr:subward":null,"name":"T.A.G church","service_times":null,"addr:city":"Mwanza","addr:municipality":"Nyamagana","religion":"christian","denomination":null,"addr:ward":"Mhandu"},"geometry":{"type":"Point","coordinates":[32.955563,-2.5486078]}},{"id":"176","type":"Feature","properties":{"id":"mwanza_religious_facilities.177","ogc_fid":177,"fid":181,"osm_id":8520687886,"addr:street":"Amani","amenity":"place_of_worship","addr:subward":"Amani","name":"SDA","service_times":"Sa 09:00-14:00","addr:city":"Mwanza","addr:municipality":"Nyamagana","religion":"christian","denomination":"protestant","addr:ward":"Butimba"},"geometry":{"type":"Point","coordinates":[32.9118227,-2.5700705]}},{"id":"177","type":"Feature","properties":{"id":"mwanza_religious_facilities.178","ogc_fid":178,"fid":182,"osm_id":8520687887,"addr:street":"Ziwani","amenity":"place_of_worship","addr:subward":"Ziwani","name":"Al-Masjid Ibrahim","service_times":null,"addr:city":"Mwanza","addr:municipality":"Nyamagana","religion":"muslim","denomination":null,"addr:ward":"Butimba"},"geometry":{"type":"Point","coordinates":[32.9095888,-2.5655442]}},{"id":"178","type":"Feature","properties":{"id":"mwanza_religious_facilities.179","ogc_fid":179,"fid":183,"osm_id":8520687899,"addr:street":null,"amenity":"place_of_worship","addr:subward":"Amani","name":"Roman Pastorate","service_times":"Su 08:00-10:00","addr:city":"Mwanza","addr:municipality":"Nyamagana","religion":"christian","denomination":"catholic","addr:ward":"Butimba"},"geometry":{"type":"Point","coordinates":[32.9146528,-2.5643652]}},{"id":"179","type":"Feature","properties":{"id":"mwanza_religious_facilities.180","ogc_fid":180,"fid":184,"osm_id":8520687946,"addr:street":null,"amenity":"place_of_worship","addr:subward":"kambarage","name":"Masjid al ghazal","service_times":"Fr 12:00-15:00","addr:city":"Mwanza","addr:municipality":"Nyamagana","religion":"muslim","denomination":"sunni","addr:ward":"Butimba"},"geometry":{"type":"Point","coordinates":[32.9207918,-2.5611501]}},{"id":"180","type":"Feature","properties":{"id":"mwanza_religious_facilities.181","ogc_fid":181,"fid":185,"osm_id":8520687988,"addr:street":null,"amenity":"place_of_worship","addr:subward":"Kambarage","name":"Ebeneza City Center","service_times":"Su 08:00-10:00","addr:city":"Mwanza","addr:municipality":"Nyamagana","religion":"christian","denomination":"protestant","addr:ward":"Butimba"},"geometry":{"type":"Point","coordinates":[32.9246114,-2.5580767]}},{"id":"181","type":"Feature","properties":{"id":"mwanza_religious_facilities.182","ogc_fid":182,"fid":186,"osm_id":8520688105,"addr:street":"Butimba Darajani","amenity":"place_of_worship","addr:subward":"Butimba Darajani","name":"sabato church","service_times":"Sa 09:00-14:00","addr:city":"Mwanza","addr:municipality":"Nyamagana","religion":"christian","denomination":"orthodox","addr:ward":"Butimba"},"geometry":{"type":"Point","coordinates":[32.9091018,-2.5671384]}},{"id":"182","type":"Feature","properties":{"id":"mwanza_religious_facilities.183","ogc_fid":183,"fid":187,"osm_id":8520688128,"addr:street":"HILL","amenity":"place_of_worship","addr:subward":"Amani","name":null,"service_times":"Fr 12:00-15:00","addr:city":"Mwanza","addr:municipality":"Nyamagana","religion":"muslim","denomination":"sunni","addr:ward":"Butimba"},"geometry":{"type":"Point","coordinates":[32.9159832,-2.5704745]}},{"id":"183","type":"Feature","properties":{"id":"mwanza_religious_facilities.184","ogc_fid":184,"fid":188,"osm_id":8520688133,"addr:street":"Iseni","amenity":"place_of_worship","addr:subward":"Amani","name":"Al-Masjidil-Istiqaama-Iseni","service_times":null,"addr:city":"Mwanza","addr:municipality":"Nyamagana","religion":"muslim","denomination":null,"addr:ward":"Butimba"},"geometry":{"type":"Point","coordinates":[32.9149532,-2.5734541]}},{"id":"184","type":"Feature","properties":{"id":"mwanza_religious_facilities.185","ogc_fid":185,"fid":189,"osm_id":8520688144,"addr:street":"Amani","amenity":"place_of_worship","addr:subward":"Amani","name":null,"service_times":"Su 08:00-10:00","addr:city":"Mwanza","addr:municipality":"Nyamagana","religion":"christian","denomination":"catholic","addr:ward":"Butimba"},"geometry":{"type":"Point","coordinates":[32.91152,-2.5703459]}},{"id":"185","type":"Feature","properties":{"id":"mwanza_religious_facilities.186","ogc_fid":186,"fid":190,"osm_id":8520688230,"addr:street":"Butimba Road","amenity":"place_of_worship","addr:subward":"Ziwani","name":null,"service_times":"Su 08:00-10:00","addr:city":"Mwanza","addr:municipality":"Nyamagana","religion":"christian","denomination":"protestant","addr:ward":"Butimba"},"geometry":{"type":"Point","coordinates":[32.9130192,-2.5626119]}},{"id":"186","type":"Feature","properties":{"id":"mwanza_religious_facilities.187","ogc_fid":187,"fid":191,"osm_id":8520688271,"addr:street":null,"amenity":"place_of_worship","addr:subward":"kambarage","name":"Masjid al ghazal","service_times":"Mo-Fr 12:00-14:00","addr:city":"Mwanza","addr:municipality":"Nyamagana","religion":"muslim","denomination":"sunni","addr:ward":"Butimba"},"geometry":{"type":"Point","coordinates":[32.9209209,-2.5610211]}},{"id":"187","type":"Feature","properties":{"id":"mwanza_religious_facilities.188","ogc_fid":188,"fid":192,"osm_id":8520688323,"addr:street":null,"amenity":"place_of_worship","addr:subward":"Amani","name":"TAG","service_times":"Sa 09:00-14:00","addr:city":"Mwanza","addr:municipality":"Nyamagana","religion":"christian","denomination":"protestant","addr:ward":"Butimba"},"geometry":{"type":"Point","coordinates":[32.9144382,-2.5674949]}},{"id":"188","type":"Feature","properties":{"id":"mwanza_religious_facilities.189","ogc_fid":189,"fid":193,"osm_id":8520680531,"addr:street":null,"amenity":"place_of_worship","addr:subward":"Amani","name":"SDA","service_times":null,"addr:city":"Mwanza","addr:municipality":"Nyamagana","religion":"christian","denomination":"protestant","addr:ward":"Butimba"},"geometry":{"type":"Point","coordinates":[32.9175711,-2.5704102]}},{"id":"189","type":"Feature","properties":{"id":"mwanza_religious_facilities.190","ogc_fid":190,"fid":194,"osm_id":8520680593,"addr:street":"Butimba TTC","amenity":"place_of_worship","addr:subward":"Ziwani","name":"Living Water Ministries","service_times":"Su 08:00-10:00","addr:city":"Mwanza","addr:municipality":"Nyamagana","religion":"christian","denomination":"protestant","addr:ward":"Butimba"},"geometry":{"type":"Point","coordinates":[32.9100609,-2.5640651]}},{"id":"190","type":"Feature","properties":{"id":"mwanza_religious_facilities.191","ogc_fid":191,"fid":195,"osm_id":8520688437,"addr:street":null,"amenity":"place_of_worship","addr:subward":"Kambarage","name":"","service_times":"We 17:00-20:00; Su 08:00-10:00","addr:city":"Mwanza","addr:municipality":"Nyamagana","religion":"muslim","denomination":"sunni","addr:ward":"Butimba"},"geometry":{"type":"Point","coordinates":[32.9287076,-2.5639151]}},{"id":"191","type":"Feature","properties":{"id":"mwanza_religious_facilities.192","ogc_fid":192,"fid":196,"osm_id":8520975836,"addr:street":"Jeshini","amenity":"place_of_worship","addr:subward":"Mabatini B","name":"Roman Catholic","service_times":"Su 08:00-10:00","addr:city":"Mwanza","addr:municipality":"Nyamagana","religion":"christian","denomination":"catholic","addr:ward":"Mabatini"},"geometry":{"type":"Point","coordinates":[32.922611,-2.5228398]}},{"id":"192","type":"Feature","properties":{"id":"mwanza_religious_facilities.193","ogc_fid":193,"fid":197,"osm_id":8520975774,"addr:street":null,"amenity":"place_of_worship","addr:subward":"Mabatini","name":"T.A.G Miracle Temple Christian Centre","service_times":"Su 08:00-10:00","addr:city":"Mwanza","addr:municipality":"Nyamagana","religion":"christian","denomination":"protestant","addr:ward":"Mabatini"},"geometry":{"type":"Point","coordinates":[32.9222125,-2.5254054]}},{"id":"193","type":"Feature","properties":{"id":"mwanza_religious_facilities.194","ogc_fid":194,"fid":198,"osm_id":8520976310,"addr:street":"Jeshini","amenity":"place_of_worship","addr:subward":"Mabatini B","name":"PAGT Mabatini","service_times":"Su 08:00-10:00","addr:city":"Mwanza","addr:municipality":"Nyamagana","religion":"christian","denomination":"protestant","addr:ward":"Mabatini"},"geometry":{"type":"Point","coordinates":[32.9228063,-2.522872]}},{"id":"194","type":"Feature","properties":{"id":"mwanza_religious_facilities.195","ogc_fid":195,"fid":199,"osm_id":8520975880,"addr:street":null,"amenity":"place_of_worship","addr:subward":"Mabatini","name":"Kanisa la Jeshi la Wokovu Mabatini","service_times":"Su 08:00-10:00","addr:city":"Mwanza","addr:municipality":"Nyamagana","religion":"christian","denomination":"protestant","addr:ward":"Mabatini"},"geometry":{"type":"Point","coordinates":[32.9228936,-2.5253376]}},{"id":"195","type":"Feature","properties":{"id":"mwanza_religious_facilities.196","ogc_fid":196,"fid":200,"osm_id":8520976355,"addr:street":"Miembe Giza","amenity":"place_of_worship","addr:subward":"Majengo Mapya","name":"Kanisa la Jeshi La Wokovu Mabatini","service_times":"Su 08:00-10:00","addr:city":"Mwanza","addr:municipality":"Nyamagana","religion":"christian","denomination":"orthodox","addr:ward":"Mabatini"},"geometry":{"type":"Point","coordinates":[32.9228711,-2.5253936]}},{"id":"196","type":"Feature","properties":{"id":"mwanza_religious_facilities.197","ogc_fid":197,"fid":201,"osm_id":8520976614,"addr:street":"Mwembe Giza","amenity":"place_of_worship","addr:subward":"Mabatini B","name":"Kungara Bwana Wetu Yesu Kristo","service_times":"Su 08:00-10:00","addr:city":"Mwanza","addr:municipality":"Nyamagana","religion":"christian","denomination":"catholic","addr:ward":"Mabatini"},"geometry":{"type":"Point","coordinates":[32.9235502,-2.5247634]}},{"id":"197","type":"Feature","properties":{"id":"mwanza_religious_facilities.198","ogc_fid":198,"fid":202,"osm_id":8520976254,"addr:street":"Nyerere B","amenity":"place_of_worship","addr:subward":"Nyerere B","name":"Angricana","service_times":"Su 08:00-10:00","addr:city":"Mwanza","addr:municipality":"Nyamagana","religion":"christian","denomination":"protestant","addr:ward":"Mabatini"},"geometry":{"type":"Point","coordinates":[32.9188585,-2.5279875]}},{"id":"198","type":"Feature","properties":{"id":"mwanza_religious_facilities.199","ogc_fid":199,"fid":203,"osm_id":8520975843,"addr:street":null,"amenity":"place_of_worship","addr:subward":"Mission","name":"EAGT","service_times":"Su 08:00-10:00","addr:city":"Mwanza","addr:municipality":"Nyamagana","religion":"christian","denomination":"protestant","addr:ward":"Mabatini"},"geometry":{"type":"Point","coordinates":[32.9129616,-2.5262064]}},{"id":"199","type":"Feature","properties":{"id":"mwanza_religious_facilities.200","ogc_fid":200,"fid":204,"osm_id":8520976469,"addr:street":null,"amenity":"place_of_worship","addr:subward":"Nyerere B","name":null,"service_times":null,"addr:city":"Mwanza","addr:municipality":"Nyamagana","religion":"muslim","denomination":"shia","addr:ward":"Mabatini"},"geometry":{"type":"Point","coordinates":[32.9165995,-2.5257239]}},{"id":"200","type":"Feature","properties":{"id":"mwanza_religious_facilities.201","ogc_fid":201,"fid":205,"osm_id":8520976535,"addr:street":"Mabatini Kaskazini","amenity":"place_of_worship","addr:subward":"Mabatini Kaskazini","name":"PAGT","service_times":"Su 08:00-10:00","addr:city":"Mwanza","addr:municipality":"Nyamagana","religion":"christian","denomination":"protestant","addr:ward":"Mabatini"},"geometry":{"type":"Point","coordinates":[32.9197702,-2.5249882]}},{"id":"201","type":"Feature","properties":{"id":"mwanza_religious_facilities.202","ogc_fid":202,"fid":206,"osm_id":8520976429,"addr:street":"Zahanati","amenity":"place_of_worship","addr:subward":"Mabatini","name":"AICT Mabatini","service_times":"Su 08:00-10:00","addr:city":"Mwanza","addr:municipality":"Nyamagana","religion":"christian","denomination":"protestant","addr:ward":"Mabatini"},"geometry":{"type":"Point","coordinates":[32.9189176,-2.5239848]}},{"id":"202","type":"Feature","properties":{"id":"mwanza_religious_facilities.203","ogc_fid":203,"fid":207,"osm_id":8520976008,"addr:street":null,"amenity":"place_of_worship","addr:subward":null,"name":null,"service_times":"Su 08:00-10:00","addr:city":"Mwanza","addr:municipality":"Nyamagana","religion":"christian","denomination":"protestant","addr:ward":"Mabatini"},"geometry":{"type":"Point","coordinates":[32.9176354,-2.5227784]}},{"id":"203","type":"Feature","properties":{"id":"mwanza_religious_facilities.204","ogc_fid":204,"fid":208,"osm_id":8520976372,"addr:street":"kileluu Road","amenity":"place_of_worship","addr:subward":"kileluu","name":"Huduma ya mama wa mzaituni","service_times":"Su 08:00-10:00","addr:city":"Mwanza","addr:municipality":"Nyamagana","religion":"christian","denomination":"protestant","addr:ward":"Mabatini"},"geometry":{"type":"Point","coordinates":[32.9193197,-2.5220856]}},{"id":"204","type":"Feature","properties":{"id":"mwanza_religious_facilities.205","ogc_fid":205,"fid":209,"osm_id":8520976145,"addr:street":null,"amenity":"place_of_worship","addr:subward":"Unguja B","name":"Kanisa la Waadventista Wasabato Mashariki Jimbo la Nyanza Kusini","service_times":"Sa 09:00-14:00","addr:city":"Mwanza","addr:municipality":"Nyamagana","religion":"christian","denomination":"protestant","addr:ward":"Mabatini"},"geometry":{"type":"Point","coordinates":[32.9161962,-2.5211354]}},{"id":"205","type":"Feature","properties":{"id":"mwanza_religious_facilities.206","ogc_fid":206,"fid":210,"osm_id":8520976417,"addr:street":"Unguja","amenity":"place_of_worship","addr:subward":"Unguja","name":"PRC (Pendecoste Restration Church)","service_times":"Su 08:00-10:00","addr:city":"Mwanza","addr:municipality":"Nyamagana","religion":"christian","denomination":"catholic","addr:ward":"Mabatini"},"geometry":{"type":"Point","coordinates":[32.9132795,-2.5209562]}},{"id":"206","type":"Feature","properties":{"id":"mwanza_religious_facilities.207","ogc_fid":207,"fid":211,"osm_id":5090924227,"addr:street":null,"amenity":"place_of_worship","addr:subward":null,"name":"Roman Catholic Church","service_times":null,"addr:city":"Mwanza","addr:municipality":"Nyamagana","religion":"christian","denomination":"roman_catholic","addr:ward":"Mabatini"},"geometry":{"type":"Point","coordinates":[32.9114254,-2.5209333]}},{"id":"207","type":"Feature","properties":{"id":"mwanza_religious_facilities.208","ogc_fid":208,"fid":212,"osm_id":8532227266,"addr:street":null,"amenity":"place_of_worship","addr:subward":"Unguja","name":null,"service_times":"Su 08:00-10:00","addr:city":"Mwanza","addr:municipality":"Nyamagana","religion":"christian","denomination":"protestant","addr:ward":"Mabatini"},"geometry":{"type":"Point","coordinates":[32.9096103,-2.5189626]}},{"id":"208","type":"Feature","properties":{"id":"mwanza_religious_facilities.209","ogc_fid":209,"fid":213,"osm_id":8532227315,"addr:street":"Uhuru","amenity":"place_of_worship","addr:subward":"Mkanyenye","name":"Masjid Noor","service_times":"Mo-Fr 12:00-14:00","addr:city":"Mwanza","addr:municipality":"Nyamagana","religion":"muslim","denomination":"shia","addr:ward":"Mabatini"},"geometry":{"type":"Point","coordinates":[32.9096176,-2.5207487]}},{"id":"209","type":"Feature","properties":{"id":"mwanza_religious_facilities.210","ogc_fid":210,"fid":214,"osm_id":8532228825,"addr:street":"Rufiji","amenity":"place_of_worship","addr:subward":"Rufiji","name":"Al-Madrasatu Jumbe Islamiyya","service_times":"Mo-Fr 17:00-20:00","addr:city":"Mwanza","addr:municipality":"Nyamagana","religion":"muslim","denomination":"sunni","addr:ward":"Mabatini"},"geometry":{"type":"Point","coordinates":[32.9121375,-2.521535]}}]}